{"type":"FeatureCollection","features":[{"type":"Feature","id":0,"geometry":{"type":"Polygon","coordinates":[[[29.743753078101744,-23.879963816055888],[29.732954249483207,-23.880772904952472],[29.733100864826966,-23.882338668253514],[29.73314779238342,-23.884571190878411],[29.733518897887564,-23.886564990933735],[29.73416617629562,-23.886503186684578],[29.734278555284245,-23.886644891532022],[29.734247354087636,-23.887019074514367],[29.73339465475566,-23.887098789176282],[29.733389696871036,-23.888677647740288],[29.733402336983872,-23.890186025640322],[29.733387162455688,-23.892186070637734],[29.733361739780769,-23.894321044977229],[29.733379728340612,-23.894780259906518],[29.733361557993202,-23.895500520771026],[29.733343226833753,-23.896213125543749],[29.733327946314716,-23.896881345595265],[29.733058647727422,-23.897674977604563],[29.733253538776186,-23.897876027224477],[29.7399089610964,-23.899807354346773],[29.748872339977556,-23.90243336249717],[29.750843928981507,-23.884265228626688],[29.747328110727228,-23.884693284864056],[29.747157008333566,-23.878944393630221],[29.745684628027146,-23.879746743134316],[29.745091046898249,-23.879848639827902],[29.743753078101744,-23.879963816055888]]]},"properties":{"FID":0,"Id":0}}]}