{"type": "FeatureCollection", "features": [{"type": "Feature", "properties": {"Id": 1, "Building": "Robert Sobukwe", "OtherName": "", "Entrance": "Sobukwe 4", "Type": "Student Residence"}, "geometry": {"type": "Point", "coordinates": [29.733836387049998, -23.891982151207312]}}, {"type": "Feature", "properties": {"Id": 2, "Building": "Robert Sobukwe", "OtherName": "", "Entrance": "Sobukwe 3", "Type": "Student Residence"}, "geometry": {"type": "Point", "coordinates": [29.73384027914176, -23.891886017693206]}}, {"type": "Feature", "properties": {"Id": 3, "Building": "Robert Sobukwe", "OtherName": "", "Entrance": "Sobukwe 2", "Type": "Student Residence"}, "geometry": {"type": "Point", "coordinates": [29.73382895561978, -23.89162884086359]}}, {"type": "Feature", "properties": {"Id": 4, "Building": "Robert Sobukwe", "OtherName": "", "Entrance": "Sobukwe 1", "Type": "Student Residence"}, "geometry": {"type": "Point", "coordinates": [29.733832695295927, -23.89152545990341]}}, {"type": "Feature", "properties": {"Id": 5, "Building": "Oliver Tambo", "OtherName": "", "Entrance": "Tambo 14", "Type": "Student Residence"}, "geometry": {"type": "Point", "coordinates": [29.73378510076243, -23.88991859692375]}}, {"type": "Feature", "properties": {"Id": 6, "Building": "Oliver Tambo", "OtherName": "", "Entrance": "Tambo 13", "Type": "Students Residence"}, "geometry": {"type": "Point", "coordinates": [29.733751743130565, -23.889832188185178]}}, {"type": "Feature", "properties": {"Id": 7, "Building": "Oliver Tambo", "OtherName": "", "Entrance": "Tambo 12", "Type": "Student Residence"}, "geometry": {"type": "Point", "coordinates": [29.733778051238104, -23.8895834046316]}}, {"type": "Feature", "properties": {"Id": 8, "Building": "Oliver Tambo", "OtherName": "", "Entrance": "Tambo 11", "Type": "Student Residence"}, "geometry": {"type": "Point", "coordinates": [29.73375454613889, -23.889496821603235]}}, {"type": "Feature", "properties": {"Id": 9, "Building": "Oliver Tambo", "OtherName": "", "Entrance": "Tambo 10", "Type": "Student Residence"}, "geometry": {"type": "Point", "coordinates": [29.733770544605854, -23.889226470889074]}}, {"type": "Feature", "properties": {"Id": 10, "Building": "Oliver Tambo", "OtherName": "", "Entrance": "Tambo 9", "Type": "Student Residence"}, "geometry": {"type": "Point", "coordinates": [29.733747039582763, -23.889139886947447]}}, {"type": "Feature", "properties": {"Id": 11, "Building": "Oliver Tambo", "OtherName": "", "Entrance": "Tambo 8", "Type": "Student Residence"}, "geometry": {"type": "Point", "coordinates": [29.733761209136205, -23.888782567778275]}}, {"type": "Feature", "properties": {"Id": 12, "Building": "Oliver Tambo", "OtherName": "", "Entrance": "Tambo 7", "Type": "Student Residence"}, "geometry": {"type": "Point", "coordinates": [29.733731678140508, -23.88869065402545]}}, {"type": "Feature", "properties": {"Id": 13, "Building": "Oliver Tambo", "OtherName": "", "Entrance": "Tambo 6", "Type": "Student Residence"}, "geometry": {"type": "Point", "coordinates": [29.733940785477603, -23.88841686975429]}}, {"type": "Feature", "properties": {"Id": 14, "Building": "Oliver Tambo", "OtherName": "", "Entrance": "Tambo 5", "Type": "Student Residence"}, "geometry": {"type": "Point", "coordinates": [29.733909246103728, -23.88832317943308]}}, {"type": "Feature", "properties": {"Id": 15, "Building": "Oliver Tambo", "OtherName": "", "Entrance": "Tambo 4", "Type": "Student Residence"}, "geometry": {"type": "Point", "coordinates": [29.733770946735298, -23.88812082264894]}}, {"type": "Feature", "properties": {"Id": 16, "Building": "Oliver Tambo", "OtherName": "", "Entrance": "Tambo 3", "Type": "Student Residence"}, "geometry": {"type": "Point", "coordinates": [29.73374532032145, -23.888027027146553]}}, {"type": "Feature", "properties": {"Id": 17, "Building": "Oliver Tambo", "OtherName": "", "Entrance": "Tambo 2", "Type": "Student  Residence"}, "geometry": {"type": "Point", "coordinates": [29.733896547301136, -23.887625582467894]}}, {"type": "Feature", "properties": {"Id": 18, "Building": "Oliver Tambo", "OtherName": "", "Entrance": "Tambo 1", "Type": "Student Residence"}, "geometry": {"type": "Point", "coordinates": [29.73384494973274, -23.887421684990006]}}, {"type": "Feature", "properties": {"Id": 19, "Building": "Oliver Tambo", "OtherName": "", "Entrance": "Tambo 0", "Type": "Student Residence"}, "geometry": {"type": "Point", "coordinates": [29.733821292709504, -23.887327853569772]}}, {"type": "Feature", "properties": {"Id": 20, "Building": "MBK", "OtherName": "Khotso House", "Entrance": "Main Entrance", "Type": "Student Residence"}, "geometry": {"type": "Point", "coordinates": [29.734884110954695, -23.891934516111302]}}, {"type": "Feature", "properties": {"Id": 21, "Building": "MBJ Shop", "OtherName": "", "Entrance": "Main Entrance", "Type": "Commercial"}, "geometry": {"type": "Point", "coordinates": [29.73499332015892, -23.891597255999518]}}, {"type": "Feature", "properties": {"Id": 22, "Building": "MBJ", "OtherName": "Agostinho Neto", "Entrance": "Main Entrance", "Type": "Stedent Residence"}, "geometry": {"type": "Point", "coordinates": [29.73492613268186, -23.891308447968573]}}, {"type": "Feature", "properties": {"Id": 23, "Building": "MBI", "OtherName": "Anton Lembede", "Entrance": "Main Entrance", "Type": "Student  Residence"}, "geometry": {"type": "Point", "coordinates": [29.734923480605108, -23.890713986505244]}}, {"type": "Feature", "properties": {"Id": 24, "Building": "MBC", "OtherName": "Steve Biko", "Entrance": "Main Entrance", "Type": "Student Residence"}, "geometry": {"type": "Point", "coordinates": [29.73474795730046, -23.890147976875625]}}, {"type": "Feature", "properties": {"Id": 25, "Building": "MBB", "OtherName": "Kwame Nkurumah", "Entrance": "Main Entrance", "Type": "Student Residence"}, "geometry": {"type": "Point", "coordinates": [29.73481550615136, -23.889704518874787]}}, {"type": "Feature", "properties": {"Id": 26, "Building": "MO", "OtherName": "Gaddaffi House", "Entrance": "Main Entrance", "Type": "Student Residence"}, "geometry": {"type": "Point", "coordinates": [29.735492325328927, -23.888987407258202]}}, {"type": "Feature", "properties": {"Id": 27, "Building": "MBA", "OtherName": "Madiba Heights", "Entrance": "Main Entrance", "Type": "Student Residence"}, "geometry": {"type": "Point", "coordinates": [29.736639019166823, -23.889334943109976]}}, {"type": "Feature", "properties": {"Id": 28, "Building": "MBD", "OtherName": "Tsietsi Mashinini", "Entrance": "Main Entrance", "Type": "Student Residence"}, "geometry": {"type": "Point", "coordinates": [29.73646616162006, -23.88973858724678]}}, {"type": "Feature", "properties": {"Id": 29, "Building": "MBE", "OtherName": "Kofifi", "Entrance": "Main Entraince", "Type": "Student Residence"}, "geometry": {"type": "Point", "coordinates": [29.736231111226772, -23.890090775679795]}}, {"type": "Feature", "properties": {"Id": 30, "Building": "MBF", "OtherName": "Lilian Ngoyi", "Entrance": "Main Entrance", "Type": "Student Residence"}, "geometry": {"type": "Point", "coordinates": [29.736103847608998, -23.89057841033615]}}, {"type": "Feature", "properties": {"Id": 31, "Building": "UL GYM", "OtherName": "", "Entrance": "Main Entrance", "Type": "Receational"}, "geometry": {"type": "Point", "coordinates": [29.735281346686975, -23.890015236823682]}}, {"type": "Feature", "properties": {"Id": 32, "Building": "MBG", "OtherName": "Cuito Cuanavale", "Entrance": "Main E ntrance", "Type": "Student Residence"}, "geometry": {"type": "Point", "coordinates": [29.736069210470934, -23.89110866909446]}}, {"type": "Feature", "properties": {"Id": 34, "Building": "MBH", "OtherName": "Nkandla House", "Entrance": "Main Entrance", "Type": "Student Residence"}, "geometry": {"type": "Point", "coordinates": [29.73574730028885, -23.892017034847253]}}, {"type": "Feature", "properties": {"Id": 35, "Building": "MB", "OtherName": "Desmond Tutu", "Entrance": "Main Entrance", "Type": "Student Residence"}, "geometry": {"type": "Point", "coordinates": [29.736452761301774, -23.88835621243503]}}, {"type": "Feature", "properties": {"Id": 36, "Building": "MN", "OtherName": "Sol Plaatjie", "Entrance": "Main Entrance", "Type": "Student Residence"}, "geometry": {"type": "Point", "coordinates": [29.736188400813052, -23.888755438593304]}}, {"type": "Feature", "properties": {"Id": 37, "Building": "MM", "OtherName": "Ruth FIrst  House", "Entrance": "Main Entrance", "Type": "Student Residence"}, "geometry": {"type": "Point", "coordinates": [29.73691321351082, -23.88853682301543]}}, {"type": "Feature", "properties": {"Id": 38, "Building": "MP", "OtherName": "Trevor Huddleston", "Entrance": "Main E ntrance", "Type": "Student Residence"}, "geometry": {"type": "Point", "coordinates": [29.73510868243841, -23.888566116047542]}}, {"type": "Feature", "properties": {"Id": 41, "Building": "Health Centre", "OtherName": "", "Entrance": "Main Entrance", "Type": "Medical Services"}, "geometry": {"type": "Point", "coordinates": [29.73498720555687, -23.88774853598592]}}, {"type": "Feature", "properties": {"Id": 42, "Building": "Residence  Office", "OtherName": "", "Entrance": "Main Entrance", "Type": "Residence Administrative"}, "geometry": {"type": "Point", "coordinates": [29.734680847851106, -23.887494657320552]}}, {"type": "Feature", "properties": {"Id": 39, "Building": "MK", "OtherName": "Mkhonto Wesizwe", "Entrance": "Main Entrance", "Type": "Student Residence"}, "geometry": {"type": "Point", "coordinates": [29.734653498584894, -23.888515000048923]}}, {"type": "Feature", "properties": {"Id": 40, "Building": "MH", "OtherName": "Cuba House", "Entrance": "Main Entrance", "Type": "Student Residence"}, "geometry": {"type": "Point", "coordinates": [29.735364813164804, -23.888295383546538]}}, {"type": "Feature", "properties": {"Id": 43, "Building": "MA", "OtherName": "David Webster House", "Entrance": "Main Entrance", "Type": "Student Residence"}, "geometry": {"type": "Point", "coordinates": [29.73759147954308, -23.888692123193554]}}, {"type": "Feature", "properties": {"Id": 44, "Building": "MC", "OtherName": "Dr Rebeiro House", "Entrance": "Main Entrance", "Type": "Student Residence"}, "geometry": {"type": "Point", "coordinates": [29.736836111108076, -23.8888801173682]}}, {"type": "Feature", "properties": {"Id": 45, "Building": "ME", "OtherName": "Lusaka House", "Entrance": "Main Entrance", "Type": "Student Residence"}, "geometry": {"type": "Point", "coordinates": [29.73609497664011, -23.889100271396927]}}, {"type": "Feature", "properties": {"Id": 46, "Building": "MG", "OtherName": "Chief Lithuli", "Entrance": "Main Entrance", "Type": "Student Residence"}, "geometry": {"type": "Point", "coordinates": [29.73536431652022, -23.88930278044317]}}, {"type": "Feature", "properties": {"Id": 47, "Building": "MI", "OtherName": "Moses Kotane", "Entrance": "Main Entrance", "Type": "Student Residence"}, "geometry": {"type": "Point", "coordinates": [29.73500069551115, -23.888905296672103]}}, {"type": "Feature", "properties": {"Id": 50, "Building": "ML", "OtherName": "Moshoeshoe House", "Entrance": "Main Entrance", "Type": "Student Residence"}, "geometry": {"type": "Point", "coordinates": [29.734633600376153, -23.8895027943337]}}, {"type": "Feature", "properties": {"Id": 61, "Building": "VH", "OtherName": "Martin Luther King", "Entrance": "Main Entrance", "Type": "Student Residence"}, "geometry": {"type": "Point", "coordinates": [29.737018595921526, -23.88376512471096]}}, {"type": "Feature", "properties": {"Id": 62, "Building": "Optometric  Clinic", "OtherName": "", "Entrance": "Main Entrance", "Type": "Medical  Services"}, "geometry": {"type": "Point", "coordinates": [29.73711422437112, -23.883927995448733]}}, {"type": "Feature", "properties": {"Id": 63, "Building": "Optometric Clinic", "OtherName": "", "Entrance": "Main Entrance", "Type": "Optometry Lab"}, "geometry": {"type": "Point", "coordinates": [29.737183515669287, -23.88399907493034]}}, {"type": "Feature", "properties": {"Id": 64, "Building": " VF", "OtherName": "Getrude Shope", "Entrance": "Main Entrance", "Type": "Student Residence"}, "geometry": {"type": "Point", "coordinates": [29.737266448955843, -23.884331732657948]}}, {"type": "Feature", "properties": {"Id": 65, "Building": "Residence office", "OtherName": "", "Entrance": "Main Entrance", "Type": "Residence Adminstrative"}, "geometry": {"type": "Point", "coordinates": [29.736040791176823, -23.88497942241234]}}, {"type": "Feature", "properties": {"Id": 66, "Building": "VD", "OtherName": "Sekhukhune House", "Entrance": "Main Entrance", "Type": "Student Residence"}, "geometry": {"type": "Point", "coordinates": [29.736763066595657, -23.885023920813374]}}, {"type": "Feature", "properties": {"Id": 67, "Building": "VE", "OtherName": "Elen Khuzwayo", "Entrance": "Main Entrance", "Type": "Student Residence"}, "geometry": {"type": "Point", "coordinates": [29.7355579359608, -23.88522988532865]}}, {"type": "Feature", "properties": {"Id": 68, "Building": "Restuarant", "OtherName": "", "Entrance": "Main Entrance", "Type": " Commercial"}, "geometry": {"type": "Point", "coordinates": [29.735879487956115, -23.885303957839177]}}, {"type": "Feature", "properties": {"Id": 69, "Building": "VC", "OtherName": "Hector Peterson", "Entrance": "Main Entrance", "Type": "Student Residence"}, "geometry": {"type": "Point", "coordinates": [29.736394871316694, -23.885439413039926]}}, {"type": "Feature", "properties": {"Id": 70, "Building": "Reakgona Disability Centre", "OtherName": "", "Entrance": "Main Entrance", "Type": "Student Support"}, "geometry": {"type": "Point", "coordinates": [29.737607649656294, -23.885854194301057]}}, {"type": "Feature", "properties": {"Id": 71, "Building": "Radio Turf", "OtherName": "", "Entrance": "Main Entrance", "Type": "Media and Communication"}, "geometry": {"type": "Point", "coordinates": [29.73744072380204, -23.886941853439343]}}, {"type": "Feature", "properties": {"Id": 72, "Building": "Receational Hall", "OtherName": "", "Entrance": "Main Entrance", "Type": "Sports  and Recreational"}, "geometry": {"type": "Point", "coordinates": [29.73720453249888, -23.8870582670484]}}, {"type": "Feature", "properties": {"Id": 73, "Building": "Onkgopotse Tiro House", "OtherName": "", "Entrance": "Onkgopotse Tiro 1", "Type": "Student Residence"}, "geometry": {"type": "Point", "coordinates": [29.735567646016925, -23.88698017487987]}}, {"type": "Feature", "properties": {"Id": 74, "Building": "Onkgopotse Tiro House", "OtherName": "", "Entrance": "Onkgopotse Tiro 2", "Type": "Student Residence"}, "geometry": {"type": "Point", "coordinates": [29.735532913555186, -23.88687606499592]}}, {"type": "Feature", "properties": {"Id": 75, "Building": "Onkgopotse Tiro House", "OtherName": "", "Entrance": "Onkgopotse Tiro 3", "Type": "Student Residence"}, "geometry": {"type": "Point", "coordinates": [29.735037324463576, -23.886650487959805]}}, {"type": "Feature", "properties": {"Id": 76, "Building": "Onkgopotse Tiro House", "OtherName": "", "Entrance": "Onkgopotse Tiro 4", "Type": "Student Residence"}, "geometry": {"type": "Point", "coordinates": [29.734969993879705, -23.88641479971391]}}, {"type": "Feature", "properties": {"Id": 77, "Building": "Onkgopotse Riro House", "OtherName": "", "Entrance": "Onkgopotse  Tiro 5", "Type": "Student Residence"}, "geometry": {"type": "Point", "coordinates": [29.734940997773474, -23.886325548218064]}}, {"type": "Feature", "properties": {"Id": 51, "Building": "Flat B", "OtherName": "", "Entrance": "", "Type": "Sttudent Residence"}, "geometry": {"type": "Point", "coordinates": [29.734065543915282, -23.886010819979987]}}, {"type": "Feature", "properties": {"Id": 52, "Building": "Flat C", "OtherName": "", "Entrance": "", "Type": "Student Residece"}, "geometry": {"type": "Point", "coordinates": [29.73399193929558, -23.885659039811753]}}, {"type": "Feature", "properties": {"Id": 53, "Building": "VN", "OtherName": "Chris Hani", "Entrance": "Main Entance", "Type": "Student Residence"}, "geometry": {"type": "Point", "coordinates": [29.734295533452606, -23.884983990982754]}}, {"type": "Feature", "properties": {"Id": 54, "Building": "VL Dining Hall", "OtherName": "", "Entrance": "Main Entrance", "Type": "Recreatioal"}, "geometry": {"type": "Point", "coordinates": [29.734126359235432, -23.884210553486664]}}, {"type": "Feature", "properties": {"Id": 58, "Building": "VG", "OtherName": "Bernard Ncube", "Entrance": "Main Entrance", "Type": "Student Residence"}, "geometry": {"type": "Point", "coordinates": [29.736304963086848, -23.8843887405451]}}, {"type": "Feature", "properties": {"Id": 59, "Building": "VI", "OtherName": "Frederick Engels", "Entrance": "Main Entrance", "Type": "Student Residance"}, "geometry": {"type": "Point", "coordinates": [29.736118255136024, -23.883763691466392]}}, {"type": "Feature", "properties": {"Id": 60, "Building": "VG Skills Lab Nursing", "OtherName": "", "Entrance": "Main Entrance", "Type": "Laboratory"}, "geometry": {"type": "Point", "coordinates": [29.736403041676294, -23.884152603316128]}}, {"type": "Feature", "properties": {"Id": 78, "Building": "VA", "OtherName": " Khanya House", "Entrance": "Main Entrance", "Type": " Student Residence"}, "geometry": {"type": "Point", "coordinates": [29.73752863235775, -23.885227007455992]}}, {"type": "Feature", "properties": {"Id": 86, "Building": "Moshobane House", "OtherName": "", "Entrance": "Moshobane 8", "Type": " Student Residence"}, "geometry": {"type": "Point", "coordinates": [29.736410375675828, -23.88690861455094]}}, {"type": "Feature", "properties": {"Id": 79, "Building": "Moshobane House", "OtherName": "", "Entrance": "Moshobane 1", "Type": "Student Residence"}, "geometry": {"type": "Point", "coordinates": [29.73642725041727, -23.886126793033917]}}, {"type": "Feature", "properties": {"Id": 80, "Building": "Moshobane House", "OtherName": "", "Entrance": "Moshobane 2", "Type": "Student Residence"}, "geometry": {"type": "Point", "coordinates": [29.736423940334273, -23.88628622159184]}}, {"type": "Feature", "properties": {"Id": 81, "Building": "Moshobane House", "OtherName": "", "Entrance": "Moshobane 3", "Type": "Student Residence"}, "geometry": {"type": "Point", "coordinates": [29.7360929270091, -23.886236945641166]}}, {"type": "Feature", "properties": {"Id": 83, "Building": "Moshobane House", "OtherName": "", "Entrance": "Moshobane 4", "Type": "Studemt Residence"}, "geometry": {"type": "Point", "coordinates": [29.73608660675251, -23.88641175029781]}}, {"type": "Feature", "properties": {"Id": 84, "Building": "Moshobane House", "OtherName": "", "Entrance": " Moshobane 5", "Type": "Student Residence"}, "geometry": {"type": "Point", "coordinates": [29.736080931289976, -23.88661719211856]}}, {"type": "Feature", "properties": {"Id": 85, "Building": "Moshobane House", "OtherName": "", "Entrance": " Moshobane 6", "Type": "Student Residence"}, "geometry": {"type": "Point", "coordinates": [29.736084542019086, -23.886788755916903]}}, {"type": "Feature", "properties": {"Id": 87, "Building": "Tsalas Shop", "OtherName": "", "Entrance": "Main Entrance", "Type": ""}, "geometry": {"type": "Point", "coordinates": [29.737042386582004, -23.88782050054008]}}, {"type": "Feature", "properties": {"Id": 88, "Building": "B-Block", "OtherName": "", "Entrance": "Main Entrance", "Type": ""}, "geometry": {"type": "Point", "coordinates": [29.738306719761677, -23.887013383044522]}}, {"type": "Feature", "properties": {"Id": 89, "Building": "C-Block", "OtherName": "", "Entrance": "Main Entrance", "Type": ""}, "geometry": {"type": "Point", "coordinates": [29.738297937461237, -23.886697743695482]}}, {"type": "Feature", "properties": {"Id": 90, "Building": "D-Block", "OtherName": "", "Entrance": "Main Entrance", "Type": ""}, "geometry": {"type": "Point", "coordinates": [29.73829350412345, -23.886385951148753]}}, {"type": "Feature", "properties": {"Id": 91, "Building": "E-Block", "OtherName": "", "Entrance": "Main Entrance", "Type": ""}, "geometry": {"type": "Point", "coordinates": [29.738302111365325, -23.88608569373765]}}, {"type": "Feature", "properties": {"Id": 92, "Building": "F-Block", "OtherName": "", "Entrance": "Main Entrance", "Type": ""}, "geometry": {"type": "Point", "coordinates": [29.738295379893888, -23.88576609537465]}}, {"type": "Feature", "properties": {"Id": 93, "Building": "G-Block", "OtherName": "", "Entrance": "Main Entrance", "Type": ""}, "geometry": {"type": "Point", "coordinates": [29.73826941629791, -23.88544487824667]}}, {"type": "Feature", "properties": {"Id": 94, "Building": "H-Block", "OtherName": "", "Entrance": "Main Entrance", "Type": ""}, "geometry": {"type": "Point", "coordinates": [29.738258627390245, -23.88513516005636]}}, {"type": "Feature", "properties": {"Id": 95, "Building": "H-Block Extension", "OtherName": "", "Entrance": "Main Entrance", "Type": ""}, "geometry": {"type": "Point", "coordinates": [29.73823706646512, -23.884921743832205]}}, {"type": "Feature", "properties": {"Id": 96, "Building": "E-Block Greenhoudse", "OtherName": "", "Entrance": "Main Entrance", "Type": ""}, "geometry": {"type": "Point", "coordinates": [29.73849721616078, -23.886031221811642]}}, {"type": "Feature", "properties": {"Id": 97, "Building": "Staff Restuarant", "OtherName": "", "Entrance": "Main Entrance", "Type": ""}, "geometry": {"type": "Point", "coordinates": [29.738698753886233, -23.888104818748022]}}, {"type": "Feature", "properties": {"Id": 98, "Building": "Informationand Communication technology", "OtherName": "", "Entrance": "Main Entrance", "Type": "Student support"}, "geometry": {"type": "Point", "coordinates": [29.7386558942913, -23.887791748627677]}}, {"type": "Feature", "properties": {"Id": 99, "Building": "Lapologa", "OtherName": "", "Entrance": "1st Entrance", "Type": "Student support services"}, "geometry": {"type": "Point", "coordinates": [29.73912390614955, -23.887730452535152]}}, {"type": "Feature", "properties": {"Id": 100, "Building": "Graphics and Printing", "OtherName": "", "Entrance": "Main Entrance", "Type": ""}, "geometry": {"type": "Point", "coordinates": [29.73896109057719, -23.887900077130002]}}, {"type": "Feature", "properties": {"Id": 101, "Building": "Library Information Services", "OtherName": "", "Entrance": "Main Entrance", "Type": "Student support service"}, "geometry": {"type": "Point", "coordinates": [29.73925761848244, -23.887900678363025]}}, {"type": "Feature", "properties": {"Id": 102, "Building": "J-Block", "OtherName": "", "Entrance": "Main Entrance", "Type": "Lecture hall"}, "geometry": {"type": "Point", "coordinates": [29.739146927269488, -23.887304405459652]}}, {"type": "Feature", "properties": {"Id": 103, "Building": "I-Block", "OtherName": "", "Entrance": "Main Entrance", "Type": "lecture hall"}, "geometry": {"type": "Point", "coordinates": [29.73892233432776, -23.887073030902933]}}, {"type": "Feature", "properties": {"Id": 107, "Building": "N-Block", "OtherName": "", "Entrance": "2nd Entrance", "Type": ""}, "geometry": {"type": "Point", "coordinates": [29.739196007890776, -23.88568532675015]}}, {"type": "Feature", "properties": {"Id": 109, "Building": "O-Block", "OtherName": "", "Entrance": "Main Entrance", "Type": ""}, "geometry": {"type": "Point", "coordinates": [29.739091134889037, -23.885567545525753]}}, {"type": "Feature", "properties": {"Id": 110, "Building": "P-Block", "OtherName": "", "Entrance": "Main Entrance", "Type": ""}, "geometry": {"type": "Point", "coordinates": [29.738761424175852, -23.885206625208088]}}, {"type": "Feature", "properties": {"Id": 111, "Building": "Q-Block", "OtherName": "", "Entrance": "Main ENtrance", "Type": ""}, "geometry": {"type": "Point", "coordinates": [29.74018408544114, -23.886009016399314]}}, {"type": "Feature", "properties": {"Id": 112, "Building": "U-Block", "OtherName": "", "Entrance": "Main Entrance", "Type": ""}, "geometry": {"type": "Point", "coordinates": [29.74037808898343, -23.885497540881076]}}, {"type": "Feature", "properties": {"Id": 113, "Building": "New K-Block", "OtherName": "", "Entrance": "Main Entrance", "Type": "Lecture Hall"}, "geometry": {"type": "Point", "coordinates": [29.740455129059363, -23.886420014858164]}}, {"type": "Feature", "properties": {"Id": 114, "Building": "Biodiversity Lab", "OtherName": "", "Entrance": "Main  Entrance", "Type": ""}, "geometry": {"type": "Point", "coordinates": [29.740958169276446, -23.886199211034405]}}, {"type": "Feature", "properties": {"Id": 116, "Building": "Maths Building", "OtherName": "", "Entrance": "Main Entrance", "Type": "Computer lab"}, "geometry": {"type": "Point", "coordinates": [29.740997820175842, -23.88666336983531]}}, {"type": "Feature", "properties": {"Id": 117, "Building": "Faculty of Science and Agricullture", "OtherName": "", "Entrance": "Main Entrance", "Type": ""}, "geometry": {"type": "Point", "coordinates": [29.74148621148206, -23.886152529752895]}}, {"type": "Feature", "properties": {"Id": 118, "Building": "Biochemistry lab", "OtherName": "", "Entrance": "Main Entrance", "Type": ""}, "geometry": {"type": "Point", "coordinates": [29.741188106526387, -23.885773398944256]}}, {"type": "Feature", "properties": {"Id": 119, "Building": "R-40 Hall", "OtherName": "", "Entrance": "Main Entrance", "Type": "Conference Hall"}, "geometry": {"type": "Point", "coordinates": [29.74073007643682, -23.887117316423282]}}, {"type": "Feature", "properties": {"Id": 120, "Building": "DMST", "OtherName": "", "Entrance": "Main Entrance", "Type": ""}, "geometry": {"type": "Point", "coordinates": [29.74084198712272, -23.887366388339547]}}, {"type": "Feature", "properties": {"Id": 121, "Building": "T-Block", "OtherName": "", "Entrance": "TC Entrance", "Type": "Lecture Hall"}, "geometry": {"type": "Point", "coordinates": [29.74101033912165, -23.887459499111007]}}, {"type": "Feature", "properties": {"Id": 122, "Building": "T-Block", "OtherName": "", "Entrance": "TB Entrance", "Type": "Lecture Hall"}, "geometry": {"type": "Point", "coordinates": [29.741024704873695, -23.88753377771867]}}, {"type": "Feature", "properties": {"Id": 123, "Building": "T-Block", "OtherName": "", "Entrance": "TA Entance", "Type": "Lecture Halls"}, "geometry": {"type": "Point", "coordinates": [29.741018508099252, -23.887745725829472]}}, {"type": "Feature", "properties": {"Id": 124, "Building": "R-Block", "OtherName": "", "Entrance": "1st Entrance", "Type": "Lecture Halls"}, "geometry": {"type": "Point", "coordinates": [29.740216436382944, -23.887240235605777]}}, {"type": "Feature", "properties": {"Id": 125, "Building": "R-Block", "OtherName": "", "Entrance": "2nd Entrance", "Type": "Lecture halls"}, "geometry": {"type": "Point", "coordinates": [29.740224933222027, -23.88754214917943]}}, {"type": "Feature", "properties": {"Id": 126, "Building": "New R-Block", "OtherName": "", "Entrance": "Main Entrance", "Type": "Lecture halls"}, "geometry": {"type": "Point", "coordinates": [29.74048337626536, -23.88786118338105]}}, {"type": "Feature", "properties": {"Id": 127, "Building": "New R-Block", "OtherName": "", "Entrance": "2nd Entrance", "Type": "Lecture halls"}, "geometry": {"type": "Point", "coordinates": [29.740484047019265, -23.88819658081545]}}, {"type": "Feature", "properties": {"Id": 128, "Building": "Language Lab", "OtherName": "", "Entrance": "Lab 2 Entrance", "Type": "Computer Lab"}, "geometry": {"type": "Point", "coordinates": [29.742490152306363, -23.887076126923983]}}, {"type": "Feature", "properties": {"Id": 120, "Building": "Language lab", "OtherName": "", "Entrance": "Lab 3 Entrance", "Type": "Computer Lab"}, "geometry": {"type": "Point", "coordinates": [29.742942119583265, -23.887012898944356]}}, {"type": "Feature", "properties": {"Id": 130, "Building": "Language Lab", "OtherName": "", "Entrance": "Lab 4 Entrance", "Type": "Computer Lab"}, "geometry": {"type": "Point", "coordinates": [29.74296299252546, -23.88658039311425]}}, {"type": "Feature", "properties": {"Id": 131, "Building": "Language Lab", "OtherName": "", "Entrance": "Lab 1 Entrance", "Type": "Computer Lab"}, "geometry": {"type": "Point", "coordinates": [29.742507306868067, -23.886625298972188]}}, {"type": "Feature", "properties": {"Id": 132, "Building": "Restroom", "OtherName": "", "Entrance": "Restroom 1 Entrance", "Type": ""}, "geometry": {"type": "Point", "coordinates": [29.7426669473488, -23.886450824167852]}}, {"type": "Feature", "properties": {"Id": 133, "Building": "Restroom", "OtherName": "", "Entrance": "Restroom 2 Entrance", "Type": ""}, "geometry": {"type": "Point", "coordinates": [29.74235129183913, -23.886655664134338]}}, {"type": "Feature", "properties": {"Id": 134, "Building": "TV White Space", "OtherName": "", "Entrance": "Main Entrance", "Type": "Student Support Services"}, "geometry": {"type": "Point", "coordinates": [29.740685345496274, -23.8850535642347]}}, {"type": "Feature", "properties": {"Id": 135, "Building": "Department of Water and Sanitation", "OtherName": "", "Entrance": "Main Entance", "Type": "Laboratory"}, "geometry": {"type": "Point", "coordinates": [29.741457992082655, -23.884207266861704]}}, {"type": "Feature", "properties": {"Id": 136, "Building": "Community Engagement Unit", "OtherName": "", "Entrance": "Main Entrace", "Type": ""}, "geometry": {"type": "Point", "coordinates": [29.74126068813171, -23.884561885161624]}}, {"type": "Feature", "properties": {"Id": 137, "Building": "Centre for Rural and Community Empowerment", "OtherName": "", "Entrance": "Main Entrance", "Type": ""}, "geometry": {"type": "Point", "coordinates": [29.74224059540919, -23.884397304726278]}}, {"type": "Feature", "properties": {"Id": 138, "Building": "Centre for Global Change", "OtherName": "", "Entrance": "Main Entrance", "Type": "Research Centre"}, "geometry": {"type": "Point", "coordinates": [29.74154802005674, -23.88311509121236]}}, {"type": "Feature", "properties": {"Id": 139, "Building": "K- Block", "OtherName": "", "Entrance": "3rd Entrance", "Type": "Lecture Hall"}, "geometry": {"type": "Point", "coordinates": [29.7396598609097, -23.886807690446307]}}, {"type": "Feature", "properties": {"Id": 141, "Building": "K-Block", "OtherName": "", "Entrance": "5th Entrance", "Type": "Lecture Hall"}, "geometry": {"type": "Point", "coordinates": [29.739980411989077, -23.88678426723935]}}, {"type": "Feature", "properties": {"Id": 142, "Building": "K-Block", "OtherName": "", "Entrance": "2nd Entrance", "Type": "Lecture Hall"}, "geometry": {"type": "Point", "coordinates": [29.739118345060376, -23.88670516156952]}}, {"type": "Feature", "properties": {"Id": 143, "Building": "K-Block", "OtherName": "", "Entrance": "4th Entrance", "Type": "Lecture Hall"}, "geometry": {"type": "Point", "coordinates": [29.739842887391518, -23.886656829128654]}}, {"type": "Feature", "properties": {"Id": 144, "Building": "K-Block", "OtherName": "", "Entrance": "1st Entrance", "Type": "Lecture Hall"}, "geometry": {"type": "Point", "coordinates": [29.73895999674788, -23.886808350570657]}}, {"type": "Feature", "properties": {"Id": 145, "Building": "Flat A", "OtherName": "", "Entrance": "", "Type": "Student Residence"}, "geometry": {"type": "Point", "coordinates": [29.734125116949578, -23.886268754581746]}}, {"type": "Feature", "properties": {"Id": 146, "Building": "Moshobane House", "OtherName": "", "Entrance": " Moshobane 7", "Type": "Student Residence"}, "geometry": {"type": "Point", "coordinates": [29.73640523410038, -23.88675229314596]}}, {"type": "Feature", "properties": {"Id": 147, "Building": "MBL", "OtherName": "Somafco", "Entrance": "North Entrantrance", "Type": ""}, "geometry": {"type": "Point", "coordinates": [29.734006642812385, -23.89046040470293]}}, {"type": "Feature", "properties": {"Id": 147, "Building": "MBL", "OtherName": "Somafco", "Entrance": "South Entrance", "Type": "Student Residence"}, "geometry": {"type": "Point", "coordinates": [29.733863472268304, -23.89082010617388]}}, {"type": "Feature", "properties": {"Id": 153, "Building": "Onkgopotse Tiro Hall", "OtherName": "", "Entrance": "Main Entarnce", "Type": "Events Hall"}, "geometry": {"type": "Point", "coordinates": [29.739941308169705, -23.88757732319536]}}, {"type": "Feature", "properties": {"Id": 151, "Building": "N-Block", "OtherName": "", "Entrance": "Main Entrance", "Type": " Lecture Halls"}, "geometry": {"type": "Point", "coordinates": [29.739518924368276, -23.885779406262312]}}, {"type": "Feature", "properties": {"Id": 150, "Building": "M-Block", "OtherName": "", "Entrance": "M2 Entrance", "Type": "Lecture Halls"}, "geometry": {"type": "Point", "coordinates": [29.73913219063906, -23.886033636130136]}}, {"type": "Feature", "properties": {"Id": 148, "Building": "M-Block", "OtherName": "", "Entrance": "M4 Entrance", "Type": " Lecture Halls"}, "geometry": {"type": "Point", "coordinates": [29.73912704032987, -23.88578918267652]}}, {"type": "Feature", "properties": {"Id": 149, "Building": "M-Block", "OtherName": "", "Entrance": "M3 Entrance", "Type": "Lecture Halls"}, "geometry": {"type": "Point", "coordinates": [29.739131413934274, -23.885924652436163]}}, {"type": "Feature", "properties": {"Id": 155, "Building": "M-Block", "OtherName": "", "Entrance": "Back Entrance", "Type": "Lecture Hall"}, "geometry": {"type": "Point", "coordinates": [29.739065479616247, -23.885668716507165]}}, {"type": "Feature", "properties": {"Id": 152, "Building": "VB", "OtherName": " Shaka House", "Entrance": "Main Entance", "Type": " Student Residence"}, "geometry": {"type": "Point", "coordinates": [29.73710612807055, -23.88563346247252]}}, {"type": "Feature", "properties": {"Id": 156, "Building": "New Cinema Hall", "OtherName": "NCH", "Entrance": "Main Entrance", "Type": " Lecture Hall"}, "geometry": {"type": "Point", "coordinates": [29.73715543673415, -23.88670325762996]}}, {"type": "Feature", "properties": {"Id": 157, "Building": "Restuarant", "OtherName": "", "Entrance": "Main Entance", "Type": "Commercial"}, "geometry": {"type": "Point", "coordinates": [29.737080330537644, -23.88674511884172]}}, {"type": "Feature", "properties": {"Id": 158, "Building": "Boxyng Gym", "OtherName": "", "Entrance": " Main Entrance", "Type": "Recreational"}, "geometry": {"type": "Point", "coordinates": [29.73708142518675, -23.8872540931853]}}, {"type": "Feature", "properties": {"Id": 150, "Building": "Restrooms", "OtherName": "", "Entrance": "Female Entrance", "Type": "Public toilet"}, "geometry": {"type": "Point", "coordinates": [29.73732139639426, -23.887267760305768]}}, {"type": "Feature", "properties": {"Id": 160, "Building": "Restrooms", "OtherName": "", "Entrance": "Male Entrance", "Type": "Public toilet"}, "geometry": {"type": "Point", "coordinates": [29.737323500026452, -23.887367666153228]}}, {"type": "Feature", "properties": {"Id": 161, "Building": "Students Printing  Room", "OtherName": "", "Entrance": "Main Entrance", "Type": "Students Support services"}, "geometry": {"type": "Point", "coordinates": [29.737658405435226, -23.886958240040453]}}, {"type": "Feature", "properties": {"Id": 162, "Building": "SRC offices", "OtherName": "", "Entrance": "Main Entrance", "Type": "Students Support Servises"}, "geometry": {"type": "Point", "coordinates": [29.737583046917543, -23.886894797977057]}}, {"type": "Feature", "properties": {"Id": 163, "Building": "A-Block", "OtherName": "", "Entrance": "Main Entrance", "Type": "Adminstration services"}, "geometry": {"type": "Point", "coordinates": [29.738305146948036, -23.887446606142205]}}, {"type": "Feature", "properties": {"Id": 164, "Building": "A-Block", "OtherName": "", "Entrance": "Back Entrance", "Type": "Admistration services"}, "geometry": {"type": "Point", "coordinates": [29.738106246943882, -23.888030747754446]}}, {"type": "Feature", "properties": {"Id": 165, "Building": "MD", "OtherName": "Zeph Mothopeng", "Entrance": "Main Entrance", "Type": "Student Residence"}, "geometry": {"type": "Point", "coordinates": [29.737169051314652, -23.88815228480283]}}, {"type": "Feature", "properties": {"Id": 167, "Building": "Old Cinema Hall", "OtherName": " OCH", "Entrance": "1st Entrance", "Type": "Lecture Hall"}, "geometry": {"type": "Point", "coordinates": [29.737134328352507, -23.887524382440535]}}, {"type": "Feature", "properties": {"Id": 168, "Building": "Old Cinema Hall", "OtherName": "OCH", "Entrance": "2nd Entrance", "Type": "Lecture Hall"}, "geometry": {"type": "Point", "coordinates": [29.737275239130618, -23.88752433432256]}}, {"type": "Feature", "properties": {"Id": 169, "Building": "Gate 2", "OtherName": "", "Entrance": "Campus 2nd Entrance", "Type": "Pedestrians Entrance"}, "geometry": {"type": "Point", "coordinates": [29.73427853504885, -23.88696312905519]}}, {"type": "Feature", "properties": {"Id": 170, "Building": " Gate 3", "OtherName": "", "Entrance": "Campus 3rd Entrance", "Type": "Vehicles & Pedestrian Entrance"}, "geometry": {"type": "Point", "coordinates": [29.73366717590656, -23.89254776676242]}}, {"type": "Feature", "properties": {"Id": 171, "Building": "Gate 1", "OtherName": "", "Entrance": "Campus  Main Entrance", "Type": "Vehicles & Pedestrian Entrance"}, "geometry": {"type": "Point", "coordinates": [29.738532063613796, -23.880749654322596]}}, {"type": "Feature", "properties": {"Id": 172, "Building": "Gate 0", "OtherName": "", "Entrance": "Campus 4th Entrance", "Type": "Vehicles & Pedestrian Entrance"}, "geometry": {"type": "Point", "coordinates": [29.74096031145133, -23.880366045435327]}}, {"type": "Feature", "properties": {"Id": 173, "Building": "Oscar Mpetha", "OtherName": "", "Entrance": "Main Entrance", "Type": "Sports & Recreational Services"}, "geometry": {"type": "Point", "coordinates": [29.735685021839522, -23.882298592105425]}}, {"type": "Feature", "properties": {"Id": 174, "Building": "Dressing rooms", "OtherName": "", "Entrance": "Main Entrance", "Type": ""}, "geometry": {"type": "Point", "coordinates": [29.73494449986041, -23.881487609378176]}}, {"type": "Feature", "properties": {"Id": 175, "Building": "Restrroms", "OtherName": "", "Entrance": "Main Entrance", "Type": " Public toilet"}, "geometry": {"type": "Point", "coordinates": [29.735075959837733, -23.881732172095187]}}, {"type": "Feature", "properties": {"Id": 176, "Building": "MBI Lab", "OtherName": "", "Entrance": "Main Entrance", "Type": "Computer lab"}, "geometry": {"type": "Point", "coordinates": [29.735025745006148, -23.890963800658835]}}, {"type": "Feature", "properties": {"Id": 177, "Building": "Stores", "OtherName": "", "Entrance": "Main Entrance", "Type": "Store room"}, "geometry": {"type": "Point", "coordinates": [29.739469490175715, -23.889098663007665]}}, {"type": "Feature", "properties": {"Id": 178, "Building": "Technical Services", "OtherName": "", "Entrance": "Main Entrance", "Type": "Technical Services"}, "geometry": {"type": "Point", "coordinates": [29.739110285380306, -23.889711155956785]}}, {"type": "Feature", "properties": {"Id": 179, "Building": "Transport Section", "OtherName": "", "Entrance": "Main Entrance", "Type": "Transport Services"}, "geometry": {"type": "Point", "coordinates": [29.73871209036626, -23.889987082046385]}}, {"type": "Feature", "properties": {"Id": 180, "Building": "S-block", "OtherName": "", "Entrance": "Main Entrance", "Type": "Financial Aid Services"}, "geometry": {"type": "Point", "coordinates": [29.738543533978973, -23.888629314356805]}}, {"type": "Feature", "properties": {"Id": 181, "Building": "Perfoming Arts Centre", "OtherName": "", "Entrance": "Main Entrance", "Type": ""}, "geometry": {"type": "Point", "coordinates": [29.73880931841648, -23.88879924954407]}}, {"type": "Feature", "properties": {"Id": 182, "Building": "Block 1", "OtherName": " Stellebosch", "Entrance": "Main Entrance", "Type": "Student Residence"}, "geometry": {"type": "Point", "coordinates": [29.741024015183438, -23.888725290954014]}}, {"type": "Feature", "properties": {"Id": 183, "Building": "House 1", "OtherName": "", "Entrance": "Main Entrance", "Type": "Student Residence"}, "geometry": {"type": "Point", "coordinates": [29.741673300622665, -23.888849594158675]}}, {"type": "Feature", "properties": {"Id": 184, "Building": "House 2", "OtherName": "", "Entrance": "Main Entrance", "Type": "Student Residence"}, "geometry": {"type": "Point", "coordinates": [29.742254798717273, -23.889643176943366]}}, {"type": "Feature", "properties": {"Id": 185, "Building": "House 3", "OtherName": "", "Entrance": "Main Entrance", "Type": "Student Residence"}, "geometry": {"type": "Point", "coordinates": [29.74199424194949, -23.890032595746657]}}, {"type": "Feature", "properties": {"Id": 186, "Building": "House 4", "OtherName": "", "Entrance": "Main Entrance", "Type": "Student Residence"}, "geometry": {"type": "Point", "coordinates": [29.741837558582315, -23.890507751727412]}}, {"type": "Feature", "properties": {"Id": 187, "Building": "House 5", "OtherName": "", "Entrance": "Main Entrance", "Type": "Student Residence"}, "geometry": {"type": "Point", "coordinates": [29.74182037764938, -23.890983547131523]}}, {"type": "Feature", "properties": {"Id": 189, "Building": "House 6", "OtherName": "", "Entrance": "Main Entrance", "Type": "Student Residence"}, "geometry": {"type": "Point", "coordinates": [29.74137603440946, -23.89136998623203]}}, {"type": "Feature", "properties": {"Id": 190, "Building": "House 7", "OtherName": "", "Entrance": "Main Entrance", "Type": "Student Residence"}, "geometry": {"type": "Point", "coordinates": [29.741025889084458, -23.89073807123428]}}, {"type": "Feature", "properties": {"Id": 191, "Building": "House 8", "OtherName": "", "Entrance": "Main Entrance", "Type": "Student Residence"}, "geometry": {"type": "Point", "coordinates": [29.74185697394839, -23.891911976735283]}}, {"type": "Feature", "properties": {"Id": 192, "Building": "House 9", "OtherName": "", "Entrance": "Main Entrance", "Type": "Student Residence"}, "geometry": {"type": "Point", "coordinates": [29.741716229407594, -23.89265900368565]}}, {"type": "Feature", "properties": {"Id": 193, "Building": "House 10", "OtherName": "", "Entrance": "Main Entrance", "Type": "Student Residence"}, "geometry": {"type": "Point", "coordinates": [29.74168372960638, -23.89305373964933]}}, {"type": "Feature", "properties": {"Id": 194, "Building": "House 11", "OtherName": "", "Entrance": "Main Entrance", "Type": "Student Residence"}, "geometry": {"type": "Point", "coordinates": [29.741709214905, -23.89329415826478]}}, {"type": "Feature", "properties": {"Id": 195, "Building": "House 12", "OtherName": "", "Entrance": "Main Entrance", "Type": "Student Residence"}, "geometry": {"type": "Point", "coordinates": [29.741374620084873, -23.893722434576983]}}, {"type": "Feature", "properties": {"Id": 196, "Building": "House 15", "OtherName": "", "Entrance": "Main Entrance", "Type": "Student Residence"}, "geometry": {"type": "Point", "coordinates": [29.741186397999353, -23.894154357667393]}}, {"type": "Feature", "properties": {"Id": 197, "Building": "House 13", "OtherName": "", "Entrance": "Main Entrance", "Type": "Student  Residence"}, "geometry": {"type": "Point", "coordinates": [29.740854728685377, -23.893753602082]}}, {"type": "Feature", "properties": {"Id": 198, "Building": "House 14", "OtherName": "", "Entrance": "Main Entrance", "Type": "Student Residence"}, "geometry": {"type": "Point", "coordinates": [29.740667164220657, -23.894216795060316]}}, {"type": "Feature", "properties": {"Id": 199, "Building": "House 16", "OtherName": "", "Entrance": "Main Entrance", "Type": "Student Residence"}, "geometry": {"type": "Point", "coordinates": [29.740807021143603, -23.894717945532403]}}, {"type": "Feature", "properties": {"Id": 200, "Building": "House 17", "OtherName": "", "Entrance": "Main Entrance", "Type": "Stusent Residence"}, "geometry": {"type": "Point", "coordinates": [29.74035385483855, -23.894848025667425]}}, {"type": "Feature", "properties": {"Id": 201, "Building": "House 18", "OtherName": "", "Entrance": "Main Entrance", "Type": "Student Residence"}, "geometry": {"type": "Point", "coordinates": [29.73977851432468, -23.894992794000075]}}, {"type": "Feature", "properties": {"Id": 202, "Building": "House 19", "OtherName": "", "Entrance": "Main Entrance", "Type": "Commercial"}, "geometry": {"type": "Point", "coordinates": [29.739345356388473, -23.895103744501426]}}, {"type": "Feature", "properties": {"Id": 203, "Building": "House 20", "OtherName": "", "Entrance": "Main Entrance", "Type": "Student Residence"}, "geometry": {"type": "Point", "coordinates": [29.73927062551874, -23.89446379041403]}}, {"type": "Feature", "properties": {"Id": 204, "Building": "House 21", "OtherName": "", "Entrance": "Main Entrance", "Type": "Student Residence"}, "geometry": {"type": "Point", "coordinates": [29.738636006954156, -23.89405591471419]}}, {"type": "Feature", "properties": {"Id": 205, "Building": "House 22", "OtherName": "", "Entrance": "Main Entrance", "Type": "Student Residence"}, "geometry": {"type": "Point", "coordinates": [29.739082081104083, -23.893750786045267]}}, {"type": "Feature", "properties": {"Id": 206, "Building": "House  23", "OtherName": "", "Entrance": "Main Entrance", "Type": "Student Residence"}, "geometry": {"type": "Point", "coordinates": [29.73952817877091, -23.893608323854316]}}, {"type": "Feature", "properties": {"Id": 207, "Building": "House 24", "OtherName": "", "Entrance": "Main Entrance", "Type": "Student Residence"}, "geometry": {"type": "Point", "coordinates": [29.739946738798206, -23.893450709267587]}}, {"type": "Feature", "properties": {"Id": 208, "Building": "House 25", "OtherName": "", "Entrance": "Main Entrance", "Type": "Student Residence"}, "geometry": {"type": "Point", "coordinates": [29.73995315684372, -23.893109618680906]}}, {"type": "Feature", "properties": {"Id": 209, "Building": "House 26", "OtherName": "", "Entrance": "Main Entrance", "Type": "Student Residence"}, "geometry": {"type": "Point", "coordinates": [29.739848567648973, -23.89266727451759]}}, {"type": "Feature", "properties": {"Id": 244, "Building": "House 43", "OtherName": "", "Entrance": "Main Entrance", "Type": "Student Residence"}, "geometry": {"type": "Point", "coordinates": [29.739087119052147, -23.892536944235015]}}, {"type": "Feature", "properties": {"Id": 211, "Building": "House  42", "OtherName": "", "Entrance": "Main Entrance", "Type": "Student Entrance"}, "geometry": {"type": "Point", "coordinates": [29.73893290301312, -23.892161176779148]}}, {"type": "Feature", "properties": {"Id": 212, "Building": "House 29", "OtherName": "", "Entrance": "Main Entrance", "Type": "Student Residence"}, "geometry": {"type": "Point", "coordinates": [29.739530430911223, -23.891778270928583]}}, {"type": "Feature", "properties": {"Id": 213, "Building": "House 28", "OtherName": "", "Entrance": "Main  Entrance", "Type": "Student Residence"}, "geometry": {"type": "Point", "coordinates": [29.73983875776781, -23.89187913665148]}}, {"type": "Feature", "properties": {"Id": 214, "Building": "House 27", "OtherName": "", "Entrance": "Main Entrance", "Type": "Student Residence"}, "geometry": {"type": "Point", "coordinates": [29.73999972372225, -23.891929447578235]}}, {"type": "Feature", "properties": {"Id": 215, "Building": "House 41", "OtherName": "", "Entrance": "Main Entrance", "Type": "Student Residence"}, "geometry": {"type": "Point", "coordinates": [29.739024520510004, -23.891665284631912]}}, {"type": "Feature", "properties": {"Id": 216, "Building": "House 44", "OtherName": "", "Entrance": "Main Entrance", "Type": "Student Residence"}, "geometry": {"type": "Point", "coordinates": [29.739788718112464, -23.89144207657897]}}, {"type": "Feature", "properties": {"Id": 217, "Building": "House 30", "OtherName": "", "Entrance": "Main Entrance", "Type": "Student Residence"}, "geometry": {"type": "Point", "coordinates": [29.73965269375558, -23.891122293541613]}}, {"type": "Feature", "properties": {"Id": 218, "Building": "House 31", "OtherName": "", "Entrance": "Main Entrance", "Type": "Student Residence"}, "geometry": {"type": "Point", "coordinates": [29.739755512422153, -23.891157999886666]}}, {"type": "Feature", "properties": {"Id": 219, "Building": "Fesics  1", "OtherName": "", "Entrance": "Main Entrance", "Type": ""}, "geometry": {"type": "Point", "coordinates": [29.739019764664175, -23.890955261624754]}}, {"type": "Feature", "properties": {"Id": 220, "Building": "House 40", "OtherName": "", "Entrance": "Main Entrance", "Type": ""}, "geometry": {"type": "Point", "coordinates": [29.73919223731824, -23.89058305847173]}}, {"type": "Feature", "properties": {"Id": 221, "Building": "Fedics 2", "OtherName": "", "Entrance": "Main Entrance", "Type": ""}, "geometry": {"type": "Point", "coordinates": [29.73934174655504, -23.890574138252294]}}, {"type": "Feature", "properties": {"Id": 222, "Building": "House 39", "OtherName": "", "Entrance": "Main Entrance", "Type": "Student Residence"}, "geometry": {"type": "Point", "coordinates": [29.73976128517491, -23.890463430612957]}}, {"type": "Feature", "properties": {"Id": 223, "Building": "House 38", "OtherName": "", "Entrance": "Main Entrance", "Type": "Student Residence"}, "geometry": {"type": "Point", "coordinates": [29.739709124651437, -23.890248512364074]}}, {"type": "Feature", "properties": {"Id": 224, "Building": "House 37", "OtherName": "", "Entrance": "Main Entrance", "Type": "Student Residence"}, "geometry": {"type": "Point", "coordinates": [29.739671793836592, -23.889930098723873]}}, {"type": "Feature", "properties": {"Id": 225, "Building": "House 36", "OtherName": "", "Entrance": "Main Entrance", "Type": "Staff House"}, "geometry": {"type": "Point", "coordinates": [29.739601047596615, -23.889640434407127]}}, {"type": "Feature", "properties": {"Id": 226, "Building": "House 34", "OtherName": "", "Entrance": "Main Entrance", "Type": "Student Residence"}, "geometry": {"type": "Point", "coordinates": [29.74061781026357, -23.88977872541873]}}, {"type": "Feature", "properties": {"Id": 227, "Building": "House 32", "OtherName": "", "Entrance": "Main Entrance", "Type": "Student Residence"}, "geometry": {"type": "Point", "coordinates": [29.74060588249968, -23.89001981138528]}}, {"type": "Feature", "properties": {"Id": 228, "Building": "House 33", "OtherName": "", "Entrance": "Main Entrance", "Type": "Student Residence"}, "geometry": {"type": "Point", "coordinates": [29.74027239628511, -23.890016370868093]}}, {"type": "Feature", "properties": {"Id": 229, "Building": "Block 3", "OtherName": "Stellenbosch", "Entrance": "Main Entrance", "Type": "Student Entrance"}, "geometry": {"type": "Point", "coordinates": [29.740632815132336, -23.89032902533954]}}, {"type": "Feature", "properties": {"Id": 230, "Building": "Campus Control", "OtherName": "", "Entrance": "Main Entrance", "Type": "Security Services"}, "geometry": {"type": "Point", "coordinates": [29.740157476153232, -23.889567954373042]}}, {"type": "Feature", "properties": {"Id": 231, "Building": "Block 2", "OtherName": "Stellenbosch", "Entrance": "Main Entrance", "Type": "Student Residence"}, "geometry": {"type": "Point", "coordinates": [29.741219553208587, -23.889273738630518]}}, {"type": "Feature", "properties": {"Id": 232, "Building": "Educational Science", "OtherName": "UL Botanical Garden", "Entrance": "Main Entrance", "Type": ""}, "geometry": {"type": "Point", "coordinates": [29.744664286668083, -23.888399925338142]}}, {"type": "Feature", "properties": {"Id": 234, "Building": "Water testing lab", "OtherName": "", "Entrance": "Main Entrance", "Type": "Laboratory"}, "geometry": {"type": "Point", "coordinates": [29.744366603895365, -23.88940724632327]}}, {"type": "Feature", "properties": {"Id": 235, "Building": "Aquaculture", "OtherName": "", "Entrance": "Main Entrance", "Type": ""}, "geometry": {"type": "Point", "coordinates": [29.742548569779863, -23.89156329429826]}}, {"type": "Feature", "properties": {"Id": 236, "Building": "Aquaculture offices", "OtherName": "", "Entrance": "Main Entrance", "Type": ""}, "geometry": {"type": "Point", "coordinates": [29.74263259988568, -23.889870053827977]}}, {"type": "Feature", "properties": {"Id": 239, "Building": "Creche", "OtherName": "", "Entrance": "Main Entrance", "Type": ""}, "geometry": {"type": "Point", "coordinates": [29.74234610015421, -23.883078522509713]}}, {"type": "Feature", "properties": {"Id": 240, "Building": "Dimamo Population Health Centre", "OtherName": "", "Entrance": "", "Type": ""}, "geometry": {"type": "Point", "coordinates": [29.741452926756192, -23.883329861533582]}}, {"type": "Feature", "properties": {"Id": 241, "Building": " Snooker Practice Hall", "OtherName": "", "Entrance": "Main Entrance", "Type": "Recreational"}, "geometry": {"type": "Point", "coordinates": [29.737316382723346, -23.887195045784566]}}, {"type": "Feature", "properties": {"Id": 242, "Building": "Mantsiri Park", "OtherName": "", "Entrance": "Main Entrance", "Type": "Events Services"}, "geometry": {"type": "Point", "coordinates": [29.73860878083438, -23.89439731208163]}}, {"type": "Feature", "properties": {"Id": 243, "Building": "Block 4", "OtherName": " Stellenbosch", "Entrance": "Main Entrance", "Type": "Student Residence"}, "geometry": {"type": "Point", "coordinates": [29.740395154097936, -23.89073723261062]}}, {"type": "Feature", "properties": {"Id": 245, "Building": "VL", "OtherName": "Samora Machel", "Entrance": "Main Entrance", "Type": "Student Residence"}, "geometry": {"type": "Point", "coordinates": [29.73404943451242, -23.883939203136762]}}, {"type": "Feature", "properties": {"Id": 246, "Building": "VJ", "OtherName": "Amilca Cabral", "Entrance": "Main Entrance", "Type": "Student Residence"}, "geometry": {"type": "Point", "coordinates": [29.734924102986163, -23.88399866762297]}}, {"type": "Feature", "properties": {"Id": 247, "Building": "VI Optometry Lab", "OtherName": "", "Entrance": "Main Entrance", "Type": "Laboratory"}, "geometry": {"type": "Point", "coordinates": [29.73618520904627, -23.883949756739558]}}, {"type": "Feature", "properties": {"Id": 248, "Building": "K-Block", "OtherName": "", "Entrance": " KA", "Type": "Lecture Hall"}, "geometry": {"type": "Point", "coordinates": [29.73976362479477, -23.88682749544328]}}, {"type": "Feature", "properties": {"Id": 249, "Building": "K-Block", "OtherName": "", "Entrance": "KB", "Type": "Lecture Hall"}, "geometry": {"type": "Point", "coordinates": [29.739929095251906, -23.886817622687534]}}, {"type": "Feature", "properties": {"Id": 250, "Building": "M-Block", "OtherName": "", "Entrance": "Main Entrance", "Type": "Lecture Hall"}, "geometry": {"type": "Point", "coordinates": [29.739127275576436, -23.8861575170677]}}, {"type": "Feature", "properties": {"Id": 251, "Building": "L-Block", "OtherName": "", "Entrance": "Main Entrance", "Type": " Lecture Hall"}, "geometry": {"type": "Point", "coordinates": [29.739045138265375, -23.886286469038424]}}]}