{"type": "FeatureCollection", "features": [{"type": "Feature", "properties": {"Id": 1, "RestrType": "Stairs"}, "geometry": {"type": "Point", "coordinates": [29.739449228668374, -23.88593710932177]}}, {"type": "Feature", "properties": {"Id": 2, "RestrType": "Stairs"}, "geometry": {"type": "Point", "coordinates": [29.73686720351693, -23.887267054543408]}}, {"type": "Feature", "properties": {"Id": 3, "RestrType": "Stairs"}, "geometry": {"type": "Point", "coordinates": [29.73868709789071, -23.886999690564924]}}, {"type": "Feature", "properties": {"Id": 4, "RestrType": "Stairs"}, "geometry": {"type": "Point", "coordinates": [29.737831221065857, -23.88805672316068]}}, {"type": "Feature", "properties": {"Id": 5, "RestrType": "Stairs"}, "geometry": {"type": "Point", "coordinates": [29.738694376668793, -23.88793506590722]}}, {"type": "Feature", "properties": {"Id": 6, "RestrType": "Stairs"}, "geometry": {"type": "Point", "coordinates": [29.738698692881343, -23.88539881199925]}}, {"type": "Feature", "properties": {"Id": 7, "RestrType": "Stairs"}, "geometry": {"type": "Point", "coordinates": [29.739404066528703, -23.88589253489666]}}, {"type": "Feature", "properties": {"Id": 8, "RestrType": "Stairs"}, "geometry": {"type": "Point", "coordinates": [29.739065479616247, -23.885668716507165]}}, {"type": "Feature", "properties": {"Id": 9, "RestrType": "Stairs"}, "geometry": {"type": "Point", "coordinates": [29.73699638958573, -23.887859304725673]}}, {"type": "Feature", "properties": {"Id": 10, "RestrType": "Stairs"}, "geometry": {"type": "Point", "coordinates": [29.73706047804411, -23.88687368234712]}}, {"type": "Feature", "properties": {"Id": 11, "RestrType": "Stairs"}, "geometry": {"type": "Point", "coordinates": [29.740836547154665, -23.88701580854036]}}, {"type": "Feature", "properties": {"Id": 12, "RestrType": "Stairs"}, "geometry": {"type": "Point", "coordinates": [29.740103394565747, -23.886930264318682]}}, {"type": "Feature", "properties": {"Id": 13, "RestrType": "Stairs"}, "geometry": {"type": "Point", "coordinates": [29.737388822090733, -23.887640264021382]}}, {"type": "Feature", "properties": {"Id": 14, "RestrType": "Stairs"}, "geometry": {"type": "Point", "coordinates": [29.73577318763598, -23.888262387281433]}}, {"type": "Feature", "properties": {"Id": 15, "RestrType": "Stairs"}, "geometry": {"type": "Point", "coordinates": [29.740486883767495, -23.88790985729203]}}]}