{"type": "FeatureCollection", "features": [{"type": "Feature", "properties": {"Id": 0, "Shapelengt": 860.875383717, "WalkTime": 10.2485164728, "PathType": "Road", "Accessible": 1, "Wheelchair": "Yes", "Shape_Leng": 860.875366471}, "geometry": {"type": "LineString", "coordinates": [[29.73849155779464, -23.880356382287864], [29.73852073043421, -23.88174166162487], [29.738503602758975, -23.88199095432553], [29.738387134476802, -23.882498111210715], [29.73819529054257, -23.883048701254395], [29.737978122530873, -23.883604418117496], [29.737883133966708, -23.883924124596504], [29.737852581426615, -23.88405607998275], [29.73782282468261, -23.884324791032913], [29.73781668651172, -23.884527951234933], [29.73781546667007, -23.884964724295024], [29.737818990272793, -23.88536082634875], [29.737833396878948, -23.88589034552232], [29.737865877397063, -23.88635070306151], [29.737883222348948, -23.8868652047455], [29.737864795490214, -23.88710929027365], [29.737850650953195, -23.88732791728897], [29.737846192020672, -23.88751189193331], [29.737820368936653, -23.88757173465065], [29.73776751347623, -23.88762071821904], [29.73767912641114, -23.887700753774908], [29.737620824195798, -23.887858716355947], [29.73759454731737, -23.887961620307674]]}}, {"type": "Feature", "properties": {"Id": 0, "Shapelengt": 1320.48965176, "WalkTime": 15.7201149019, "PathType": "Road", "Accessible": 1, "Wheelchair": "Yes", "Shape_Leng": 1320.48961441}, "geometry": {"type": "LineString", "coordinates": [[29.73759454731737, -23.887961620307674], [29.73759327883713, -23.88796626753083], [29.73771317454432, -23.888007370098443], [29.737853978928527, -23.888066237796114], [29.738152769746907, -23.88820737933868], [29.738341524815922, -23.88829353034574], [29.738502793182597, -23.888368360870682], [29.738611368779697, -23.888419562504616], [29.73875747966838, -23.888481426003853], [29.738970518756922, -23.888580067141348], [29.739176449305905, -23.88867883459841], [29.73939185764251, -23.888777433795006], [29.739590056111933, -23.888959159408838], [29.73967095771205, -23.889086307753338], [29.739763275117724, -23.88933225386577], [29.739802269337908, -23.88958089291994], [29.73985075182734, -23.8898568254506], [29.73991368104953, -23.890143397797704], [29.739945008976797, -23.890280147010067], [29.739939250345124, -23.890456788886187], [29.739886451660826, -23.890538371144316], [29.739835746036977, -23.890606839140307], [29.739779419013217, -23.890639412971215], [29.739660406773027, -23.890704916660972], [29.739588518689846, -23.890749048606747], [29.739498451118045, -23.89080298928283], [29.739383005141878, -23.890867815502286], [29.73925414531421, -23.890944039685458], [29.73906818891138, -23.891046388863792], [29.738921160298922, -23.89112433181664], [29.738816593057486, -23.891201518227266], [29.73872807293486, -23.89132026515556], [29.738699857677997, -23.891380859134493], [29.73867826393715, -23.89150800967224], [29.738665288130726, -23.89172160124889], [29.738645939750427, -23.89190644840938], [29.73861702132861, -23.89229178110305], [29.738580483263906, -23.892667033630595], [29.738567226769696, -23.892839449835243], [29.738548931394362, -23.89298362224609], [29.738502476071716, -23.893141373235824], [29.738408033846085, -23.893271646354826], [29.738305747856675, -23.893367186657766], [29.738136931339362, -23.893455193328194], [29.73795326412485, -23.89348529987807], [29.737726986899563, -23.893468897004595], [29.73735466664518, -23.893376768814917], [29.73691099690043, -23.893238233025393], [29.736398493200067, -23.893074222034834], [29.736121149943994, -23.89296146562689], [29.73581810931333, -23.89286660135044], [29.735486404453667, -23.892761350052076], [29.735273631244013, -23.89268458100068], [29.73515023721786, -23.89266027404017], [29.73487874504098, -23.892591174669068], [29.734780941534556, -23.89257992506953], [29.734503110157547, -23.892556533480853], [29.734277866512773, -23.892554001672423], [29.734109400859914, -23.89254609958151], [29.733772312173667, -23.892548059745888], [29.73360819483739, -23.892541455259007], [29.733425431040914, -23.892551053405576], [29.733382810009136, -23.892551536824648]]}}, {"type": "Feature", "properties": {"Id": 0, "Shapelengt": 505.707769258, "WalkTime": 6.0203305864, "PathType": "Road", "Accessible": 1, "Wheelchair": "Yes", "Shape_Leng": 505.707724334}, "geometry": {"type": "LineString", "coordinates": [[29.73509107197263, -23.883735636529657], [29.735367555993204, -23.8837051270885], [29.735447054533772, -23.883710061487722], [29.735522244219563, -23.883756335995816], [29.735552943874563, -23.883820859844366], [29.73555614815234, -23.883973160730974], [29.735566497498873, -23.884218971849084], [29.735563291129242, -23.88431266532347], [29.735577080588264, -23.884475888237315], [29.735579918368625, -23.884541859892124], [29.735583408754085, -23.88460274040827], [29.735591295077054, -23.884662528260172], [29.73558397123469, -23.884681956784984], [29.735519590983916, -23.884719668717462], [29.73541815784521, -23.88479771566814], [29.735341919867274, -23.88486572844669], [29.735187316291796, -23.8849827471256], [29.7350958036489, -23.885053253558574], [29.734982588340284, -23.885132462007224], [29.734876083262577, -23.885215613399236], [29.73476526854034, -23.885303920902274], [29.734657219216874, -23.88538259321136], [29.73457557017459, -23.88543959244614], [29.734524545755928, -23.885537670677497], [29.73453527522916, -23.885847453100638], [29.734527413850092, -23.886170895828098], [29.734523899217532, -23.886260230991443], [29.734532523519807, -23.886413824577033], [29.734570020384634, -23.88652970805159], [29.734647903151895, -23.886642393072815], [29.73471293311593, -23.8867850644814], [29.73474156008843, -23.88686390810547], [29.734748724701703, -23.88694809383275], [29.734489711700856, -23.88694278128232], [29.734390119607717, -23.886951991154195], [29.734253007486377, -23.88695127406557]]}}, {"type": "Feature", "properties": {"Id": 0, "Shapelengt": 336.878802569, "WalkTime": 4.01046193535, "PathType": "Road", "Accessible": 1, "Wheelchair": "Yes", "Shape_Leng": 336.878820202}, "geometry": {"type": "LineString", "coordinates": [[29.734748724701703, -23.88694809383275], [29.7347928498643, -23.886994424656947], [29.734940409785178, -23.887086032249833], [29.73503431283668, -23.88719099328634], [29.735164095983137, -23.887334991928373], [29.73531047276245, -23.887498534107305], [29.7354426930516, -23.8876300899356], [29.735585800386534, -23.88776641232482], [29.735679078478388, -23.88784162617368], [29.735788062306113, -23.887894242364833], [29.735851556964526, -23.88792287043702], [29.735948745621478, -23.887948120905865], [29.736156062026566, -23.887952169343915], [29.736468368728623, -23.88792677264108], [29.73679690353827, -23.88790356665669], [29.73691806284025, -23.88789397128481], [29.737052700867537, -23.887884134982546], [29.737206367887694, -23.887881399488574], [29.73735287094001, -23.88790078459029], [29.73745711833196, -23.887920258486826], [29.737537179074028, -23.88794524155277], [29.73759454731737, -23.887961620307674]]}}, {"type": "Feature", "properties": {"Id": 0, "Shapelengt": 169.136640329, "WalkTime": 2.01353143249, "PathType": "Road", "Accessible": 1, "Wheelchair": "Yes", "Shape_Leng": 169.136632343}, "geometry": {"type": "LineString", "coordinates": [[29.734351816831648, -23.883936627337967], [29.734392972485153, -23.88422555973789], [29.73439911576974, -23.884271475862104], [29.734416288800293, -23.88443146366405], [29.73443282699365, -23.884561309570863], [29.73444332198713, -23.8846499985073], [29.734469522105965, -23.884828870400657], [29.734482330379038, -23.88492907259251], [29.73449407165709, -23.885033564604573], [29.734503534069926, -23.885132982407303], [29.73451744666444, -23.885220023875412], [29.73452028291104, -23.88535487434109], [29.73457557017459, -23.88543959244614]]}}, {"type": "Feature", "properties": {"Id": 0, "Shapelengt": 183.912280379, "WalkTime": 2.18943190927, "PathType": "Road", "Accessible": 1, "Wheelchair": "Yes", "Shape_Leng": 183.912305967}, "geometry": {"type": "LineString", "coordinates": [[29.735591295077054, -23.884662528260172], [29.735689840585874, -23.884621161502167], [29.735782102954182, -23.88459615861007], [29.735993713359235, -23.884594945239833], [29.736330588697637, -23.88458399163256], [29.73674585085412, -23.884581561226067], [29.73738217203283, -23.884575194733692]]}}, {"type": "Feature", "properties": {"Id": 0, "Shapelengt": 277.407961153, "WalkTime": 3.30247572801, "PathType": "Road", "Accessible": 1, "Wheelchair": "Yes", "Shape_Leng": 277.407905134}, "geometry": {"type": "LineString", "coordinates": [[29.735341919867274, -23.88486572844669], [29.735466664424973, -23.88498672861079], [29.735572768875265, -23.88509453921883], [29.735709202409343, -23.885164004328768], [29.735989004794057, -23.885244268935363], [29.736344954487034, -23.885338676502013], [29.73653524005857, -23.885370161917393], [29.73670462766775, -23.885409769174228], [29.736996741519004, -23.885474313336676], [29.737153574225896, -23.8855180181698], [29.73729372023748, -23.88556976912973], [29.73744327039686, -23.88566784804069], [29.73757491063229, -23.885715874616913], [29.737829053808316, -23.88573071847403]]}}, {"type": "Feature", "properties": {"Id": 0, "Shapelengt": 118.807376853, "WalkTime": 1.41437353396, "PathType": "Road", "Accessible": 1, "Wheelchair": "Yes", "Shape_Leng": 118.807399873}, "geometry": {"type": "LineString", "coordinates": [[29.73439911576974, -23.884271475862104], [29.73477059116224, -23.884269531629602], [29.735077968401367, -23.88426654510952], [29.735288347603635, -23.88426776264296], [29.735443241737126, -23.884267189755217], [29.7355649614951, -23.884263856610158]]}}, {"type": "Feature", "properties": {"Id": 0, "Shapelengt": 69.5151386292, "WalkTime": 0.827561174157, "PathType": "Road", "Accessible": 1, "Wheelchair": "Yes", "Shape_Leng": 69.5150633126}, "geometry": {"type": "LineString", "coordinates": [[29.735633256696797, -23.887804678015947], [29.735650870897995, -23.887764700457925], [29.735676572120187, -23.887675834333084], [29.735737093583136, -23.887486877327966], [29.73578866659967, -23.887312969719453], [29.735829530793424, -23.887204322563132]]}}, {"type": "Feature", "properties": {"Id": 0, "Shapelengt": 239.893765218, "WalkTime": 2.85587815736, "PathType": "Road", "Accessible": 1, "Wheelchair": "Yes", "Shape_Leng": 239.893826959}, "geometry": {"type": "LineString", "coordinates": [[29.73691806284025, -23.88789397128481], [29.736920529019834, -23.88787711658455], [29.736917743764582, -23.887796760238025], [29.736918496627567, -23.887658383987546], [29.736923140224796, -23.887494634729787], [29.736929505065596, -23.88741268858586], [29.736927835066584, -23.88733336565408], [29.73688551822418, -23.88724484634791], [29.736821790321894, -23.887164147801442], [29.7367851262157, -23.887087927008018], [29.736771368369517, -23.886946823389835], [29.73678566476479, -23.88685729729536], [29.73684055660989, -23.88677448742661], [29.736877568610907, -23.886739111349552], [29.736889742625223, -23.886676899744053], [29.7368934687809, -23.886582304461097], [29.73689129788376, -23.88647918400383], [29.736889661352464, -23.886401446237645], [29.736880878600125, -23.88623020022137], [29.736870548700747, -23.88614944383537], [29.736873987789814, -23.886066854799996], [29.73689392371817, -23.886029998331715], [29.737023192148698, -23.886021348944528], [29.73714386637714, -23.886014440007408]]}}, {"type": "Feature", "properties": {"Id": 0, "Shapelengt": 113.691053008, "WalkTime": 1.35346491676, "PathType": "Road", "Accessible": 1, "Wheelchair": "Yes", "Shape_Leng": 113.690996759}, "geometry": {"type": "LineString", "coordinates": [[29.73687760993008, -23.886204645072237], [29.73701143798135, -23.886200896574895], [29.73718221392565, -23.88619626913895], [29.737277342471135, -23.886205685167504], [29.737319318482545, -23.886231918604484], [29.73733094033106, -23.886292019763687], [29.737345978662635, -23.88635047342684], [29.73740348401701, -23.88637642947925], [29.737489617625197, -23.886368547572246], [29.737606508182992, -23.886345835263175], [29.737682089758245, -23.88632861926847], [29.737764571997076, -23.886311279471375], [29.737861404312305, -23.886287308549473]]}}, {"type": "Feature", "properties": {"Id": 0, "Shapelengt": 164.677804048, "WalkTime": 1.96045004819, "PathType": "Road", "Accessible": 1, "Wheelchair": "Yes", "Shape_Leng": 164.677791456}, "geometry": {"type": "LineString", "coordinates": [[29.73583731903441, -23.88459584233993], [29.73583717237349, -23.884483450018735], [29.73584344214091, -23.88436145146688], [29.735842249799884, -23.884199782499444], [29.735842589210208, -23.884142396207555], [29.735842215473813, -23.88409104799888], [29.735843122445605, -23.88406697901653], [29.735857731247886, -23.884055668340768], [29.735920585445758, -23.88405259968726], [29.73600897720146, -23.884053627282167], [29.73606337845968, -23.884052009533168], [29.736115660378875, -23.884050429473703], [29.736216901955277, -23.88405110647179], [29.736342825363625, -23.884050897452394], [29.736435600015117, -23.8840502619412], [29.73650849902692, -23.88404998006696], [29.736655337750328, -23.88404635160323], [29.736730445369464, -23.88404603031883], [29.736798521067698, -23.88402653592107], [29.73686277968607, -23.883986811184847]]}}, {"type": "Feature", "properties": {"Id": 0, "Shapelengt": 211.214313251, "WalkTime": 2.51445611013, "PathType": "Road", "Accessible": 1, "Wheelchair": "Yes", "Shape_Leng": 211.214295375}, "geometry": {"type": "LineString", "coordinates": [[29.740963845555537, -23.880172868812522], [29.740968700295674, -23.880394119367367], [29.74092041391989, -23.88064870658884], [29.74070950790707, -23.88118811043305], [29.740542908867948, -23.88146595078756], [29.740447833904753, -23.881682607446294], [29.740340592001303, -23.88196816264095]]}}, {"type": "Feature", "properties": {"Id": 0, "Shapelengt": 1249.81739826, "WalkTime": 14.8787785507, "PathType": "Road", "Accessible": 1, "Wheelchair": "Yes", "Shape_Leng": 1249.81745142}, "geometry": {"type": "LineString", "coordinates": [[29.73852047450007, -23.881729508905423], [29.73866990061103, -23.881736086443308], [29.73888404034511, -23.881743357942618], [29.739056927173777, -23.881747669768938], [29.73921579013005, -23.88175445686169], [29.739407361267798, -23.881766831861725], [29.73958662736033, -23.881777170364547], [29.739785839250466, -23.881802941519165], [29.73999538135229, -23.88185333658392], [29.740225012942187, -23.881925927059168], [29.740340592001303, -23.88196816264095], [29.740480570931044, -23.882035832033456], [29.74067584716822, -23.88213666175807], [29.740881149744414, -23.882276781641472], [29.740975349324362, -23.882382231911368], [29.741077222922886, -23.88256084357831], [29.74113648776331, -23.882754311468716], [29.741136155441325, -23.88288400022184], [29.741115143311635, -23.88305070625612], [29.741063244919008, -23.88320668644655], [29.740985427328816, -23.88344206594973], [29.74088067941919, -23.88370893681147], [29.740798905021233, -23.883902098111797], [29.740728855523795, -23.884069679017134], [29.740676599952366, -23.88420875002298], [29.74061797729831, -23.88433665811569], [29.740565543338803, -23.884467275444248], [29.74052855206566, -23.884603255734913], [29.740519203905144, -23.884741562017428], [29.740533660581708, -23.884845614922092], [29.74059039546924, -23.88506450034912], [29.740651122396216, -23.885181823594696], [29.740745324166195, -23.885287273795303], [29.740897519513084, -23.88538041294898], [29.741127108853508, -23.885508821883732], [29.74132780645232, -23.885628048589584], [29.741453205868662, -23.885712418281027], [29.741689398702878, -23.885839918830925], [29.741802496744427, -23.885899248075418], [29.741919480580787, -23.885956702853683], [29.742039718290474, -23.886075445324156], [29.742114728193446, -23.886189581688022], [29.74215198823778, -23.886303002199256], [29.742189781859725, -23.886504957100406], [29.742143234769784, -23.886796515956807], [29.74207771844249, -23.88709722190336], [29.74200676254936, -23.887367190380274], [29.741984111009128, -23.887532488818177], [29.741950342105312, -23.88769908480426], [29.741900212879443, -23.887857513905452], [29.74178231365475, -23.88808233218726], [29.74169274483351, -23.888196696608087], [29.741487482798384, -23.888349773394467], [29.741281150560962, -23.888452123558203], [29.741141029909098, -23.88851425267626], [29.740981875505174, -23.888589838547272], [29.74078903514726, -23.88866951578194], [29.740600556817597, -23.88874617455459], [29.74036952555369, -23.888840506101356], [29.740250945484703, -23.888887726819778], [29.740202381971887, -23.888911145978827], [29.740119867506717, -23.88892389290718], [29.739911335342665, -23.888921970934145], [29.73982245363785, -23.888923554793156], [29.73976823559163, -23.88896962823939], [29.739659299116063, -23.889067985374233]]}}, {"type": "Feature", "properties": {"Id": 0, "Shapelengt": 36.3484232384, "WalkTime": 0.432719324267, "PathType": "Road", "Accessible": 1, "Wheelchair": "Yes", "Shape_Leng": 36.3485283152}, "geometry": {"type": "LineString", "coordinates": [[29.739497704493534, -23.888874483840016], [29.7396740999337, -23.88886718912695], [29.739769630242602, -23.888871260454195], [29.739815335560543, -23.888894695551027], [29.73982245363785, -23.888923554793156]]}}, {"type": "Feature", "properties": {"Id": 0, "Shapelengt": 438.784261239, "WalkTime": 5.22362215761, "PathType": "Road", "Accessible": 1, "Wheelchair": "Yes", "Shape_Leng": 438.784211129}, "geometry": {"type": "LineString", "coordinates": [[29.741087315584227, -23.882593790634033], [29.74122401160113, -23.882581669781928], [29.74137642467035, -23.882567867889758], [29.741586208863335, -23.88256304776705], [29.74172388471388, -23.882549316018693], [29.74179119006425, -23.88254247787419], [29.741858793505088, -23.882549730301065], [29.7418995852054, -23.88259411029895], [29.74191525041504, -23.882685623214893], [29.741924671462293, -23.88285325330002], [29.741920058899247, -23.883006699230986], [29.7419207598687, -23.883132985868556], [29.741917020379148, -23.88326830129248], [29.741915713157198, -23.883384952986976], [29.741917830871788, -23.88348537726666], [29.741916461795547, -23.883580523369627], [29.74191482113218, -23.8836888090193], [29.74191378903155, -23.883825952550012], [29.7419190974423, -23.8839846350256], [29.74191417971301, -23.884123652017752], [29.74190173728685, -23.88437105956749], [29.741887241948433, -23.88452107333013], [29.74185693958232, -23.88466595548719], [29.74182214391611, -23.884783854111884], [29.74178927153494, -23.884899914256614], [29.74176108248206, -23.88495399631784], [29.741718741589885, -23.88500426654913], [29.74164120561912, -23.88506255429657], [29.74159430247889, -23.88508703986599], [29.741550735558306, -23.885133960016955], [29.74150439570124, -23.885199451579044], [29.741459466503596, -23.88533189207632], [29.74144485636063, -23.885394185221845], [29.741423560301154, -23.885451470217525], [29.74139499262293, -23.88554509757682], [29.74135458571168, -23.885610853377717], [29.741342108315905, -23.885637670149105]]}}, {"type": "Feature", "properties": {"Id": 0, "Shapelengt": 69.0007382332, "WalkTime": 0.821437359919, "PathType": "Road", "Accessible": 1, "Wheelchair": "Yes", "Shape_Leng": 69.0008136596}, "geometry": {"type": "LineString", "coordinates": [[29.741547676925524, -23.885138282673385], [29.74151184625376, -23.885101587797408], [29.741468443939855, -23.88505725790807], [29.74143775782718, -23.88501703621518], [29.74141155621005, -23.8849655394241], [29.74140053934024, -23.884919546389767], [29.741407866441133, -23.884850132057323], [29.7414244823304, -23.884744754567315], [29.741486084659616, -23.884569290456067]]}}, {"type": "Feature", "properties": {"Id": 0, "Shapelengt": 475.164390767, "WalkTime": 5.6567189377, "PathType": "Road", "Accessible": 1, "Wheelchair": "Yes", "Shape_Leng": 475.164354569}, "geometry": {"type": "LineString", "coordinates": [[29.74207601695348, -23.886130678042264], [29.742233143030266, -23.886110246623723], [29.742387795508233, -23.88611903655157], [29.7425390708113, -23.886146361595678], [29.742839717298946, -23.886202637271097], [29.74304656460044, -23.886242996918064], [29.74331134260944, -23.886304347485115], [29.74356626373606, -23.886352659335007], [29.74389864217439, -23.886439232700337], [29.744004739497317, -23.886472579118323], [29.74406332088808, -23.886524393743443], [29.744075035914225, -23.886625498562253], [29.744098094278534, -23.88681009541053], [29.744112134024434, -23.887021284121], [29.74412366539284, -23.88710098753223], [29.744155467095954, -23.887306107338578], [29.744180926872293, -23.88748968924962], [29.744190866470596, -23.887588746268037], [29.744193036620434, -23.88769155121035], [29.74418109520477, -23.887776565303493], [29.744167459864876, -23.8878742397903], [29.74414013073299, -23.887973962852236], [29.744088253994498, -23.888119230316338], [29.74404946084872, -23.88823359230786], [29.74397103680248, -23.888422636554672], [29.74393530755638, -23.888548558652612], [29.7438893027902, -23.888693157193735], [29.743831574149286, -23.888863338091312]]}}, {"type": "Feature", "properties": {"Id": 0, "Shapelengt": 109.489858524, "WalkTime": 1.30345069671, "PathType": "Road", "Accessible": 1, "Wheelchair": "Yes", "Shape_Leng": 109.489812671}, "geometry": {"type": "LineString", "coordinates": [[29.742033765650124, -23.887264452586482], [29.742207219323532, -23.887243691115074], [29.742322983888858, -23.88722513074387], [29.742428600254357, -23.88720881359587], [29.74258717838226, -23.88719155082589], [29.742661677581452, -23.88718841781392], [29.74271086780029, -23.887194757122337], [29.74276651204273, -23.887228045816972], [29.742831069384017, -23.887311695283085], [29.742875116895117, -23.887417248844088], [29.742904365104597, -23.88749566431392]]}}, {"type": "Feature", "properties": {"Id": 0, "Shapelengt": 213.923097378, "WalkTime": 2.54670354021, "PathType": "Road", "Accessible": 1, "Wheelchair": "Yes", "Shape_Leng": 213.923055538}, "geometry": {"type": "LineString", "coordinates": [[29.74171954342003, -23.888162479005956], [29.741869389698767, -23.888326612126267], [29.7419519813417, -23.888427983079755], [29.74203876130181, -23.88854190946134], [29.742103356014244, -23.888627362724858], [29.74218417684038, -23.888737786013127], [29.742266828269877, -23.888838290151362], [29.742303026050738, -23.88888729789794], [29.742333093205488, -23.88894334379485], [29.742365889483843, -23.889009733778433], [29.742383951880498, -23.88903250585927], [29.74242231975562, -23.889065309432656], [29.74249058661585, -23.889123849075528], [29.74256253298902, -23.88918571570484], [29.742620635215832, -23.889242415800723], [29.74265569401344, -23.889322983087492], [29.742673022824455, -23.889400257373136], [29.742666754755454, -23.88956816706186], [29.742656887887367, -23.889658556643013], [29.742634242302323, -23.889794281412456]]}}, {"type": "Feature", "properties": {"Id": 0, "Shapelengt": 889.248485431, "WalkTime": 10.5862914932, "PathType": "Road", "Accessible": 1, "Wheelchair": "Yes", "Shape_Leng": 889.248555511}, "geometry": {"type": "LineString", "coordinates": [[29.742492426631248, -23.891948860732573], [29.742335064123644, -23.89233789610997], [29.74217024021872, -23.89270365163137], [29.741993183651633, -23.893181720012276], [29.74176664928193, -23.893798326398187], [29.74156786689722, -23.8943111967664], [29.741397419674435, -23.89474785102185], [29.741299188437647, -23.89505932721999], [29.74116107533774, -23.89525450719108], [29.741051353899795, -23.895292738662977], [29.740907296878653, -23.89529530729878], [29.7406895592333, -23.895293551272506], [29.740483974112735, -23.89529272812736], [29.740301788560288, -23.89528904800842], [29.73998732446902, -23.895295807760974], [29.73974196836659, -23.895292964115242], [29.739565344783244, -23.895292503543168], [29.739512532594528, -23.895300661458613], [29.739481891982333, -23.895243470929792], [29.73950843414641, -23.894920031944896], [29.739514173546088, -23.8947268721072], [29.739515625249926, -23.89460956799333], [29.73951123042535, -23.89449417225094], [29.73951909997472, -23.894402014138574], [29.739515465569905, -23.894322690318255], [29.739481319432418, -23.894285409159195], [29.739318466795115, -23.894286506981906], [29.73911725975172, -23.894306669230666], [29.738964245874268, -23.894320671932103], [29.73878352829163, -23.894329529861817], [29.738658039824006, -23.894340223227843], [29.7385717436761, -23.894319206911916], [29.738499941333547, -23.894258464123897], [29.738433913597, -23.89418070295902], [29.738425169959168, -23.894056814924514], [29.738445145840707, -23.893910537639496], [29.738459684053474, -23.89376232739594], [29.738475803735717, -23.893596047132654], [29.738486129593163, -23.893527300563996], [29.738491368033102, -23.893496534303868], [29.738421685335503, -23.893449059881306], [29.738343738652357, -23.893381885688797], [29.738305747856675, -23.893367186657766]]}}, {"type": "Feature", "properties": {"Id": 0, "Shapelengt": 268.159932397, "WalkTime": 3.19238014758, "PathType": "Road", "Accessible": 1, "Wheelchair": "Yes", "Shape_Leng": 268.159876265}, "geometry": {"type": "LineString", "coordinates": [[29.73990506682622, -23.890509608391568], [29.739956803340792, -23.89052520563404], [29.740012429120696, -23.89053308268671], [29.74011845406095, -23.890529714738996], [29.74020519608394, -23.890526691300778], [29.740364972909365, -23.890515182719525], [29.740563956074414, -23.890500359545435], [29.74073223039237, -23.8904832640031], [29.740906574884267, -23.890463240520056], [29.74105952440547, -23.890446417826958], [29.741245891350747, -23.89041490325669], [29.741343612361163, -23.890396246343318], [29.74142853906911, -23.89035244432838], [29.74148900551938, -23.89031189706801], [29.74154701933194, -23.890253915787792], [29.74159665050908, -23.890188076611384], [29.74164024414992, -23.890115128355617], [29.74167134623845, -23.89000812067561], [29.741694259158898, -23.88988502138488], [29.741699975556344, -23.88978387983445], [29.741703822221027, -23.8897132288188], [29.741676217335037, -23.88965482928273], [29.7416307205138, -23.889581736797087], [29.74158696663662, -23.889531709274948], [29.7415394946013, -23.889484056739946]]}}, {"type": "Feature", "properties": {"Id": 0, "Shapelengt": 89.3807723191, "WalkTime": 1.06405681332, "PathType": "Road", "Accessible": 1, "Wheelchair": "Yes", "Shape_Leng": 89.380820733}, "geometry": {"type": "LineString", "coordinates": [[29.741470086042725, -23.890324583911575], [29.74150295056353, -23.890359444347542], [29.74155836479784, -23.89039540811759], [29.7416026861977, -23.890438959689725], [29.741621265605275, -23.89048149191987], [29.74162244985971, -23.89053763781498], [29.741613854633528, -23.890631622092272], [29.74161025280432, -23.89073994265929], [29.741597967227026, -23.890808724266208], [29.741593946929488, -23.89089720538961], [29.741575853032845, -23.890969698934796], [29.741514832245823, -23.89105378394285]]}}, {"type": "Feature", "properties": {"Id": 0, "Shapelengt": 293.955452486, "WalkTime": 3.49946967245, "PathType": "Road", "Accessible": 1, "Wheelchair": "Yes", "Shape_Leng": 293.955463009}, "geometry": {"type": "LineString", "coordinates": [[29.74070016387024, -23.890486521596756], [29.74072218881707, -23.890611333317253], [29.740736465611555, -23.890729323645793], [29.74076515379421, -23.89088854153486], [29.740784798192596, -23.89100970517244], [29.74081885593408, -23.89114253353905], [29.740848061727757, -23.891256974244545], [29.740887950042875, -23.891348641974453], [29.740964630038693, -23.89149097503324], [29.741025297645322, -23.89161511847863], [29.74109695079179, -23.89173085469283], [29.741188388822376, -23.89183186781721], [29.74126389991577, -23.89191879458455], [29.741378466170207, -23.89203132678945], [29.74150270220135, -23.892125981287805], [29.74158224542358, -23.89219230764353], [29.74171101840931, -23.892263914053178], [29.741792317927953, -23.892307627361234], [29.741904949216366, -23.892359157410866], [29.742073289816783, -23.892413963664822], [29.742205642472037, -23.89245627334599], [29.742273791267174, -23.89247386492142]]}}, {"type": "Feature", "properties": {"Id": 0, "Shapelengt": 379.699789859, "WalkTime": 4.52023559356, "PathType": "Road", "Accessible": 1, "Wheelchair": "Yes", "Shape_Leng": 379.69979186}, "geometry": {"type": "LineString", "coordinates": [[29.739383005141878, -23.890867815502286], [29.739396307404025, -23.890896120517493], [29.73941176612711, -23.890935365645067], [29.73943081101172, -23.890971183092276], [29.739443917949217, -23.8910289686484], [29.739445299735863, -23.891094530048807], [29.739445696175498, -23.89115674612939], [29.73944454805588, -23.8912324439449], [29.739440782180704, -23.891308661336932], [29.7394389884174, -23.89142693821004], [29.739443671693753, -23.891513567514295], [29.739439297441706, -23.89164502959136], [29.739441888704327, -23.891700164014374], [29.739442093231983, -23.891777677107108], [29.739445044358817, -23.89184988484611], [29.73945964340127, -23.891932396953415], [29.739481800068013, -23.892034481419657], [29.739494666946534, -23.89210257105697], [29.739509016911402, -23.892173262470006], [29.739523091051606, -23.892230820473433], [29.73952441208198, -23.892331634476882], [29.739529022393288, -23.892444459575653], [29.739532006972205, -23.892586054227774], [29.739538806390474, -23.8926967879296], [29.739540403006252, -23.892781009175255], [29.739539622896245, -23.892879560933878], [29.739560268133634, -23.892977730890422], [29.73957464693373, -23.89304973496781], [29.739574851629605, -23.89312724804093], [29.73955181468633, -23.893186781457302], [29.739520096812253, -23.893241213154894], [29.739472970845995, -23.8933103727427], [29.739398178686088, -23.893355061872274], [29.739305942635017, -23.89338561027552], [29.739230735141607, -23.893410598796414], [29.739141161634663, -23.893431902747885], [29.739030191743748, -23.893459253133678], [29.73897246576541, -23.893474651919966], [29.738892378148254, -23.893488395797473], [29.738778725973365, -23.8934986319318], [29.73865807508163, -23.893494623266527], [29.73856223333382, -23.893502488669437], [29.738488594606018, -23.893512821370727]]}}, {"type": "Feature", "properties": {"Id": 0, "Shapelengt": 544.199069449, "WalkTime": 6.47856035058, "PathType": "Road", "Accessible": 1, "Wheelchair": "Yes", "Shape_Leng": 544.19906797}, "geometry": {"type": "LineString", "coordinates": [[29.74002036290434, -23.89053283118266], [29.740020324779113, -23.8905662719873], [29.740022900940634, -23.890599634611526], [29.740024597793848, -23.89062681333776], [29.74002903171721, -23.890676734302637], [29.7400304713649, -23.890745027548007], [29.740031800289863, -23.89080806816019], [29.740037552636714, -23.890877598646004], [29.740041987081746, -23.890952408126807], [29.74004614567427, -23.891014085105983], [29.7400617383861, -23.891131010547102], [29.74007318002841, -23.891211992180914], [29.740083605070243, -23.891299833206734], [29.74009496042018, -23.89136400831497], [29.740103404086966, -23.891425608915366], [29.740120593280906, -23.89153989302245], [29.74013145073684, -23.891657739494715], [29.740137434703605, -23.891738482639816], [29.74014861467601, -23.891834981827554], [29.740156203636865, -23.891947574178893], [29.740163948320795, -23.892060754015137], [29.74017292509039, -23.892147635254496], [29.74018505627239, -23.892214753244218], [29.740187384185035, -23.892264177419815], [29.740195459375435, -23.892321842262497], [29.74020001754435, -23.892375365746556], [29.740214748285787, -23.89242345240634], [29.740252821284603, -23.892494246151777], [29.740310720967752, -23.892583672369025], [29.74036248021673, -23.892666506632352], [29.740392294030205, -23.892725097157143], [29.740407408643836, -23.892764242675486], [29.74042091051141, -23.892811629175906], [29.74043496622327, -23.892885281527114], [29.740441554005194, -23.89293338153544], [29.74043912251566, -23.89298072353103], [29.740433640173723, -23.893045987548135], [29.74043178468442, -23.893120646462993], [29.740430917259296, -23.8931879302364], [29.740430087878142, -23.893265723440603], [29.740431505768065, -23.893332966475114], [29.740425728413484, -23.89342976788267], [29.74042071034036, -23.89351709620522], [29.740431327366974, -23.89370269534669], [29.740419184224386, -23.893813413716686], [29.740410193273828, -23.893997555498814], [29.74040646465973, -23.89407481011755], [29.740405212292227, -23.894184865923858], [29.740397911941276, -23.894262184212607], [29.74039641824643, -23.89436074863453], [29.74038877170039, -23.89442164952662], [29.740362888566562, -23.894464810216387], [29.740308230618883, -23.89449863078399], [29.740209834618902, -23.894575930275217], [29.740109894918515, -23.894664752913638], [29.740050225320253, -23.89471508539809], [29.73995000850055, -23.894790774571184], [29.739832891918585, -23.89482735084644], [29.73968861124847, -23.89484634495743], [29.73958160969907, -23.89484499733476], [29.73951066419312, -23.894844959292037]]}}, {"type": "Feature", "properties": {"Id": 0, "Shapelengt": 115.560936426, "WalkTime": 1.37572543364, "PathType": "Road", "Accessible": 1, "Wheelchair": "Yes", "Shape_Leng": 115.560913204}, "geometry": {"type": "LineString", "coordinates": [[29.741506230601622, -23.894469097306022], [29.741069746731974, -23.89446370457567], [29.740756958277583, -23.894453885058173], [29.740372335271815, -23.894449057614313]]}}, {"type": "Feature", "properties": {"Id": 0, "Shapelengt": 663.020999006, "WalkTime": 7.89310713102, "PathType": "Road", "Accessible": 1, "Wheelchair": "Yes", "Shape_Leng": 663.020988025}, "geometry": {"type": "LineString", "coordinates": [[29.735273631244013, -23.89268458100068], [29.735341150620055, -23.892543750502018], [29.73542973870435, -23.892356917835478], [29.73548078113167, -23.892236121838664], [29.73550446512551, -23.89217329302877], [29.735565276105323, -23.89203928773678], [29.735597674081927, -23.89198738982716], [29.735578153803417, -23.891940418522545], [29.735555899280623, -23.891901398552246], [29.735550288994364, -23.89180460292232], [29.73555350329615, -23.891702723277415], [29.735560633837967, -23.89161719756572], [29.735570714084698, -23.891502056497277], [29.73556571491684, -23.891349412218794], [29.73557508847876, -23.891179473047888], [29.73557174128752, -23.8910204346206], [29.735569541352525, -23.89093712731134], [29.735569633191034, -23.89085665292819], [29.735571580942786, -23.890779429884873], [29.7355755198923, -23.89071202630484], [29.735576200074615, -23.89065945988794], [29.735603039885287, -23.890576867848225], [29.735649761677376, -23.89050541776163], [29.735684158347855, -23.89044239832859], [29.73570465043235, -23.89039769164998], [29.73572517804464, -23.890354626969796], [29.735727159306258, -23.89027904596419], [29.735721474481466, -23.890178658622293], [29.735719099033677, -23.89006579246659], [29.73571681647195, -23.889957339005903], [29.735707739309774, -23.889865532048027], [29.735707970328278, -23.889791624813867], [29.735704298875582, -23.88972580071718], [29.735696993155763, -23.889650254082284], [29.735689643207813, -23.889572605301975], [29.735684000618964, -23.889501363997677], [29.735682618610095, -23.88943569681867], [29.73574833437481, -23.889418104815423], [29.735801586929664, -23.889402376281698], [29.735857891831845, -23.889361959344246], [29.735912446411188, -23.889323215264266], [29.735985268790834, -23.88930385407579], [29.736090195265835, -23.88928227982082], [29.73621540832624, -23.8892486420718], [29.736326458776638, -23.889221005489567], [29.73643176799199, -23.88918577230128], [29.736542818308184, -23.889158134669263], [29.736653705588235, -23.889122802056082], [29.736764485758684, -23.889082338500565], [29.736928216859848, -23.88903836637626], [29.737061639550365, -23.88901289697536], [29.73707112352305, -23.88893317875172], [29.737066119506895, -23.888828058186697], [29.737067396807124, -23.888756185663542], [29.737101071702128, -23.888632413202128], [29.73716903257595, -23.888546523011012], [29.737257277489547, -23.888496195675756], [29.737384255161484, -23.888429783117278], [29.73746434729664, -23.8883898663634], [29.737533280114228, -23.88835014735316], [29.73759674180893, -23.888315658497692], [29.737656591909243, -23.888253187351793], [29.737743930706603, -23.888148808066205], [29.737800643520767, -23.88808917798718], [29.737831221065857, -23.88805672316068]]}}, {"type": "Feature", "properties": {"Id": 0, "Shapelengt": 58.9724508105, "WalkTime": 0.702052985839, "PathType": "Road", "Accessible": 1, "Wheelchair": "Yes", "Shape_Leng": 58.9724577901}, "geometry": {"type": "LineString", "coordinates": [[29.739790972581687, -23.889508860975248], [29.73921332081143, -23.88954168366181]]}}, {"type": "Feature", "properties": {"Id": 0, "Shapelengt": 395.670037604, "WalkTime": 4.71035759052, "PathType": "Road", "Accessible": 1, "Wheelchair": "Yes", "Shape_Leng": 395.670045555}, "geometry": {"type": "LineString", "coordinates": [[29.735569206934578, -23.89145605169888], [29.736582490982013, -23.89145613188133], [29.7365780923456, -23.89136386269542], [29.73657621221838, -23.891274564081495], [29.736577165608757, -23.891187299909355], [29.73658074662129, -23.89109229116095], [29.736582295075646, -23.891033243485158], [29.73658089091614, -23.89096655055958], [29.73658726154078, -23.89087149125317], [29.736585371326537, -23.890781711758024], [29.7365836971505, -23.89070219305917], [29.736582293012166, -23.89063550013082], [29.736583570471712, -23.890563626698416], [29.736588810579693, -23.89048377914749], [29.736595906864647, -23.89039661141006], [29.736633112307626, -23.890297411128625], [29.736672726647928, -23.890227729015255], [29.736721232549506, -23.890156246895163], [29.736793702123467, -23.890072328938697], [29.73687959066648, -23.890042572969698], [29.736921059599194, -23.89002387232906], [29.736936123870013, -23.88994405567635], [29.736931984007988, -23.88987997739293], [29.73699442035821, -23.889796750609282], [29.737043393786745, -23.88973685868827], [29.737086678979082, -23.88967193614848], [29.737110815060994, -23.88962531694272], [29.73713500415626, -23.889581262724963], [29.73713766044978, -23.88954052691724], [29.737140227177044, -23.889488685086487], [29.73714221766176, -23.889444252575423], [29.73713970687786, -23.889394518323495], [29.73713535502896, -23.88933981404105], [29.737125873888765, -23.889269560873398], [29.73711896562407, -23.889212926428396], [29.73709976734954, -23.88911551808967], [29.737078683083823, -23.889037063365183], [29.737061639550365, -23.88901289697536]]}}, {"type": "Feature", "properties": {"Id": 0, "Shapelengt": 91.2171098262, "WalkTime": 1.08591797412, "PathType": "Road", "Accessible": 1, "Wheelchair": "Yes", "Shape_Leng": 91.2170806513}, "geometry": {"type": "LineString", "coordinates": [[29.735715052422314, -23.890375868939376], [29.73661007019722, -23.890358845935797]]}}, {"type": "Feature", "properties": {"Id": 0, "Shapelengt": 608.990403807, "WalkTime": 7.24988575961, "PathType": "Road", "Accessible": 1, "Wheelchair": "Yes", "Shape_Leng": 608.990427444}, "geometry": {"type": "LineString", "coordinates": [[29.735555628936492, -23.89167723458052], [29.735288038639066, -23.89167348376117], [29.73506850640022, -23.891671083342686], [29.734795883068635, -23.89168345853461], [29.73455316928196, -23.891687775826373], [29.73442194019375, -23.891684978039343], [29.734354714961572, -23.89167334309587], [29.734278526230657, -23.891633640413577], [29.73424638121985, -23.891564928167337], [29.734235368166143, -23.891439384935286], [29.734228170055605, -23.89136253029002], [29.734228423534972, -23.891241919462313], [29.734233662725657, -23.891092992838715], [29.734222056231996, -23.89093923392509], [29.734222309758533, -23.890818623091075], [29.734219547913682, -23.8906571850573], [29.734221267351643, -23.890521565885148], [29.734224152035964, -23.89038697745494], [29.734220530999416, -23.89023522818253], [29.73421913978845, -23.890084161289433], [29.73423323256031, -23.88974580154513], [29.734237431544567, -23.889414700921805], [29.7342340701863, -23.889122226526865], [29.734235440848362, -23.888922046285238], [29.734226120414355, -23.888595035412], [29.734221568072567, -23.888378601835846], [29.734224441210756, -23.888001014729536], [29.73422185151028, -23.88787788848108], [29.734087835694055, -23.887875138777066], [29.73383933397465, -23.887869293580785], [29.733663418766117, -23.88786472252993], [29.733628987123556, -23.88786915335584]]}}, {"type": "Feature", "properties": {"Id": 0, "Shapelengt": 53.2773049413, "WalkTime": 0.634253630254, "PathType": "Road", "Accessible": 1, "Wheelchair": "Yes", "Shape_Leng": 53.2772876119}, "geometry": {"type": "LineString", "coordinates": [[29.734228295845753, -23.891302576434903], [29.73370544684506, -23.891306955256574]]}}, {"type": "Feature", "properties": {"Id": 0, "Shapelengt": 55.0925990496, "WalkTime": 0.6558642744, "PathType": "Road", "Accessible": 1, "Wheelchair": "Yes", "Shape_Leng": 55.0925611408}, "geometry": {"type": "LineString", "coordinates": [[29.734219607556692, -23.890135004223957], [29.733678939523795, -23.890131539578196]]}}, {"type": "Feature", "properties": {"Id": 0, "Shapelengt": 75.8250880655, "WalkTime": 0.902679619827, "PathType": "Road", "Accessible": 1, "Wheelchair": "Yes", "Shape_Leng": 75.8250437456}, "geometry": {"type": "LineString", "coordinates": [[29.734235212042517, -23.888955501424405], [29.733675403737738, -23.88894421956517], [29.733565904181127, -23.888918247002298], [29.733520198639713, -23.88886814873802]]}}, {"type": "Feature", "properties": {"Id": 0, "Shapelengt": 32.2175965473, "WalkTime": 0.383542816039, "PathType": "Road", "Accessible": 1, "Wheelchair": "Yes", "Shape_Leng": 32.2176109246}, "geometry": {"type": "LineString", "coordinates": [[29.734235064847635, -23.88897692326866], [29.734551237337126, -23.88897462897506]]}}, {"type": "Feature", "properties": {"Id": 0, "Shapelengt": 344.604435654, "WalkTime": 4.10243375779, "PathType": "Road", "Accessible": 1, "Wheelchair": "Yes", "Shape_Leng": 344.60444128}, "geometry": {"type": "LineString", "coordinates": [[29.735808339618018, -23.887903385379417], [29.735778167072112, -23.887967095905413], [29.735735630296745, -23.88800989511902], [29.735619498064334, -23.888031931976098], [29.735541861844137, -23.888036466730192], [29.735432275673933, -23.888043670979723], [29.735302121488772, -23.888051241953086], [29.73518012080671, -23.88806602532935], [29.7351152536989, -23.888079792304644], [29.735035597430347, -23.88809697491532], [29.7349677608651, -23.88814278629332], [29.734917192467968, -23.888201166213488], [29.734850081449107, -23.888322247804048], [29.734810719450802, -23.888488820530117], [29.734787242819305, -23.88856149954001], [29.734770804756593, -23.888629125455395], [29.734737779374033, -23.888672413210603], [29.73464401489178, -23.888715138626775], [29.734600242025955, -23.88875697397191], [29.73457069458804, -23.888880672651133], [29.734551237337126, -23.88897462897506], [29.73454894199258, -23.88900269926841], [29.734556316893155, -23.88905987255695], [29.734579575405487, -23.889133034446488], [29.734651495912953, -23.88924054095713], [29.734734909876874, -23.889316039983647], [29.73485085514906, -23.88938839437388], [29.734982945419688, -23.88943223435504], [29.73527900303658, -23.889437950778266], [29.735470219336765, -23.889442760231287], [29.735600695278688, -23.88944700844083], [29.735682618610095, -23.88943569681867]]}}, {"type": "Feature", "properties": {"Id": 0, "Shapelengt": 153.450205899, "WalkTime": 1.82678816546, "PathType": "Road", "Accessible": 1, "Wheelchair": "Yes", "Shape_Leng": 153.450233861}, "geometry": {"type": "LineString", "coordinates": [[29.734934709308305, -23.889416224708484], [29.734957531132984, -23.88955072678494], [29.73506319794196, -23.889797758403738], [29.735137205967064, -23.889999162635362], [29.73520536515866, -23.890187841176665], [29.73524641984292, -23.89028205588761], [29.73529191928572, -23.89032230412181], [29.73537008735234, -23.890323479363293], [29.735572446250146, -23.890258292903678], [29.735677971508316, -23.89023332096481], [29.73572423943027, -23.8902274804491]]}}, {"type": "Feature", "properties": {"Id": 0, "Shapelengt": 593.064592893, "WalkTime": 7.06029277254, "PathType": "Road", "Accessible": 1, "Wheelchair": "Yes", "Shape_Leng": 593.064679527}, "geometry": {"type": "LineString", "coordinates": [[29.735538168105283, -23.883789804341436], [29.735554742513216, -23.88369813664653], [29.735559570333386, -23.88358801686741], [29.735555194178474, -23.88346492245197], [29.735605646705118, -23.88331621770519], [29.735632174619557, -23.8832188502642], [29.735630378565016, -23.88313348240697], [29.73563547226744, -23.883041320366857], [29.735629768580175, -23.882902853033038], [29.73563650110091, -23.88269231368162], [29.73564758909086, -23.882556113577728], [29.735644674911207, -23.88241759661533], [29.735649428485235, -23.882245583342883], [29.735633105838204, -23.882132966083443], [29.735666456322438, -23.881993803117286], [29.735728350640205, -23.881884926355905], [29.735790244861352, -23.881776049577663], [29.73584709980134, -23.881692922714418], [29.735892848992176, -23.88161256024572], [29.735954473110645, -23.8814908576288], [29.735999845364663, -23.881392539371955], [29.736069622638468, -23.881260427017914], [29.73615705381271, -23.881171624211255], [29.73630038500581, -23.881086958663634], [29.73652322791126, -23.881067597104902], [29.736754762857373, -23.88106347707728], [29.736885873055332, -23.881061143894165], [29.73702540645674, -23.881061227531827], [29.73704050613567, -23.88085053934373], [29.73771558254299, -23.880838523592605], [29.73808096304523, -23.880829452075332], [29.738192924158504, -23.880845422067942], [29.738280210780513, -23.88088235878845], [29.738319823947023, -23.88104075137053], [29.73832417980681, -23.881115090440222], [29.738508438795805, -23.881157999054984]]}}, {"type": "Feature", "properties": {"Id": 0, "Shapelengt": 226.835379398, "WalkTime": 2.70042118331, "PathType": "Road", "Accessible": 1, "Wheelchair": "Yes", "Shape_Leng": 226.835383294}, "geometry": {"type": "LineString", "coordinates": [[29.73845712416692, -23.882193345465087], [29.737916836788223, -23.882179571385798], [29.73766845449405, -23.882178861352806], [29.737542417394824, -23.882024573868218], [29.737552531329367, -23.88184220065059], [29.737534199326795, -23.881683910975692], [29.73744314347293, -23.88150109396808], [29.737337612503808, -23.88136308867873], [29.737200602572678, -23.88121772012305], [29.73702540645674, -23.881061227531827]]}}, {"type": "Feature", "properties": {"Id": 0, "Shapelengt": 342.571204951, "WalkTime": 4.07822863037, "PathType": "Road", "Accessible": 1, "Wheelchair": "Yes", "Shape_Leng": 342.571126275}, "geometry": {"type": "LineString", "coordinates": [[29.740699091816207, -23.88523552105731], [29.740582446112647, -23.88527488949216], [29.740204747040185, -23.88531972233181], [29.7400923818725, -23.8853440598864], [29.739871064304175, -23.885368285414373], [29.739860899993868, -23.88541568309254], [29.739858944843245, -23.88553478419667], [29.739887386181945, -23.88571903533152], [29.739916977666976, -23.885851944621397], [29.739938490671083, -23.885919306212937], [29.739963272859978, -23.886035877594267], [29.739952780259376, -23.88617360678299], [29.739938887748863, -23.886255969548838], [29.739908049735796, -23.88638174425428], [29.73986969529613, -23.88646864766278], [29.739819834786427, -23.88653933339967], [29.739749283824814, -23.88658164808687], [29.739662721095186, -23.88660577205973], [29.73950435319128, -23.88661269932544], [29.739508619431263, -23.88617946819921], [29.739509762843166, -23.885809931055928]]}}, {"type": "Feature", "properties": {"Id": 0, "Shapelengt": 63.7421050532, "WalkTime": 0.758834583967, "PathType": "Road", "Accessible": 1, "Wheelchair": "Yes", "Shape_Leng": 63.742180929}, "geometry": {"type": "LineString", "coordinates": [[29.739871064304175, -23.885368285414373], [29.739245753117924, -23.885352610378504]]}}, {"type": "Feature", "properties": {"Id": 0, "Shapelengt": 146.787840585, "WalkTime": 1.74747429268, "PathType": "Road", "Accessible": 1, "Wheelchair": "Yes", "Shape_Leng": 146.787845655}, "geometry": {"type": "LineString", "coordinates": [[29.740421734872342, -23.893535006049014], [29.741862345339122, -23.89353785094074]]}}, {"type": "Feature", "properties": {"Id": 0, "Shapelengt": 67.5381856314, "WalkTime": 0.804026019421, "PathType": "Road", "Accessible": 1, "Wheelchair": "Yes", "Shape_Leng": 67.5382184797}, "geometry": {"type": "LineString", "coordinates": [[29.739523366139906, -23.892251834900595], [29.740185366671852, -23.892221328151916]]}}]}